ID,NAME,PROVINCECODE,PROVINCE,CITYCODE,CITY,COUNTYCODE,COUNTY,TYPE,TYPECODE,ADDRESS,XGCJ,YGCJ,XWGS,YWGS,RATE,COST
B001B0I64M,新世界百货(武昌店),420000,湖北省,027,武汉市,420111,洪山区,购物服务;商场;购物中心,060101,珞喻路1号,114.354125,30.527154,114.348610548,30.529497446,5.0,
B001B08BGP,流芳供销商场,420000,湖北省,027,武汉市,420115,江夏区,购物服务;商场;普通商场,060102,流芳老街,114.45370699999999,30.440586,114.448262914,30.4429669841,,
B001B08IIJ,长江崇文广场,420000,湖北省,027,武汉市,420111,洪山区,购物服务;商场;普通商场,060102,雄楚大道268长江出版传媒广场2楼,114.342584,30.509963,114.337087999,30.5123320302,,
B001B0JHXQ,万商白马服装交易中心市场,420000,湖北省,027,武汉市,420103,江汉区,购物服务;商场;普通商场,060102,沿河大道68号,114.285425,30.567582999999999,114.28000486400001,30.5700320885,3.5,
B001B0K39O,黄陂广场,420000,湖北省,027,武汉市,420116,黄陂区,购物服务;商场;购物中心,060101,黄陂大道387号,114.375894,30.879733000000002,114.370325458,30.8818802473,4.0,
B001B15W7W,曙光商贸城(民族大道),420000,湖北省,027,武汉市,420111,洪山区,购物服务;商场;普通商场,060102,民族大道275号中南民族大学对面,114.395956,30.482008,114.39041674,30.48432141,4.0,
B001B16C6H,丽红购物广场(站前路店),420000,湖北省,027,武汉市,420107,青山区,购物服务;商场;购物中心,060101,青王路99号,114.437905,30.609991,114.432405349,30.6122880357,4.6,
B001B16GH3,南国南湖城市广场(建安街),420000,湖北省,027,武汉市,420106,武昌区,购物服务;商场;购物中心,060101,丁字桥南路520号,114.324906,30.505355,114.319438955,30.5077588638,,
B001B0IY1N,司隆百货,420000,湖北省,027,武汉市,420106,武昌区,购物服务;商场;普通商场,060102,解放路257号,114.297496,30.538012999999999,114.292066175,30.540455317799999,3.0,
B001B0J7I5,兴达商业中心,420000,湖北省,027,武汉市,420114,蔡甸区,购物服务;商场;普通商场,060102,街联城路57号(近街办事处),114.15374199999999,30.488557,114.148118907,30.490928441400001,,
B001B0JBD5,华氏国际广场,420000,湖北省,027,武汉市,420103,江汉区,购物服务;商场;购物中心,060101,唐家墩街办事处建设大道中华城,114.282990,30.605679,114.277568475,30.6081165497,,
B001B0JF8U,武汉多福路商城,420000,湖北省,027,武汉市,420104,硚口区,购物服务;商场;普通商场,060102,多福路91号附近,114.27660299999999,30.569023999999999,114.271188571,30.571482425500001,3.5,
B001B07YIV,王府井百货(中山大道店),420000,湖北省,027,武汉市,420103,江汉区,购物服务;商场;购物中心,060101,中山大道858号,114.291476,30.579246999999999,114.286049285,30.5816837144,4.5,
B001B086CW,中心百货(江汉路店),420000,湖北省,027,武汉市,420103,江汉区,购物服务;商场;普通商场,060102,江汉路129号,114.28968811035156,30.581655502319336,114.28426361083984,30.584095001220703,5.0,
B001B090QJ,江夏商业广场,420000,湖北省,027,武汉市,420115,江夏区,购物服务;商场;购物中心|购物服务;商场;普通商场,060101|060102,纸坊街江夏大道36号,114.32974243164062,30.351495742797852,114.32427978515625,30.353923797607422,3.0,
B001B15UZX,美奇国际广场,420000,湖北省,027,武汉市,420104,硚口区,购物服务;商场;购物中心,060101,中山大道285-287号,114.277932,30.572845,114.27251655,30.5753006996,3.5,
B001B16DIN,西园,420000,湖北省,027,武汉市,420103,江汉区,购物服务;商场;购物中心,060101,万松园路100号(近武汉广场),114.268943,30.585617,114.263529763,30.5880757634,4.0,
B001B0AHUB,大洋百货(武汉中山店),420000,湖北省,027,武汉市,420103,江汉区,购物服务;商场;购物中心,060101,江汉路,114.29010009765625,30.577426910400391,114.28467559814453,30.579864501953125,5.0,
B001B063DA,武商世贸广场,420000,湖北省,027,武汉市,420103,江汉区,购物服务;商场;普通商场,060102,解放大道686号武汉世界贸易大厦1-9层,114.26894378662109,30.579954147338867,114.26353454589844,30.582416534423828,5.0,
B001B08ZDR,佳兴购物广场,420000,湖北省,027,武汉市,420117,新洲区,购物服务;商场;普通商场,060102,新洲大街27正东方向150米,114.79842376708984,30.843494415283203,114.79319000244141,30.845867156982422,,
B001B18O7H,爱尚地1站,420000,湖北省,027,武汉市,420111,洪山区,购物服务;商场;购物中心,060101,光谷步行街入口处,114.400830,30.505522,114.395290079,30.5078277636,3.5,
B001B09SNP,中百仓储(沿港路购物广场店),420000,湖北省,027,武汉市,420107,青山区,购物服务;商场;商场,060100,沿港路5号(苏宁电器附近),114.40377807617187,30.637750625610352,114.39823150634766,30.640007019042969,4.6,
B001B0K7C0,汉正街中心商城,420000,湖北省,027,武汉市,420104,硚口区,购物服务;商场;普通商场,060102,多福路8号,114.277655,30.567428,114.272240166,30.5698859574,3.5,
B001B0BFAJ,时尚广场,420000,湖北省,027,武汉市,420117,新洲区,购物服务;商场;普通商场,060102,齐安大道100号,114.803187,30.83435,114.797962956,30.836736774,,
B001B0J3MA,库玛商场,420000,湖北省,027,武汉市,420103,江汉区,购物服务;商场;普通商场,060102,中山大道600号,114.283445,30.574082000000001,114.27802586,30.5765311336,3.5,
B001B16L1O,华罗利(广场店),420000,湖北省,027,武汉市,420111,洪山区,购物服务;商场;普通商场,060102,民族大道,114.396168,30.483272,114.390628666,30.4855850004,4.0,
B001B16PWW,汉正街第一大道银座,420000,湖北省,027,武汉市,420104,硚口区,购物服务;商场;普通商场,060102,汉正街与多福路交汇处,114.27654266357422,30.565773010253906,114.27113342285156,30.568233489990234,,
B001B0B94L,赛博珞珈胡同,420000,湖北省,027,武汉市,420111,洪山区,购物服务;商场;普通商场,060102,珞喻路39号测绘科技大厦,114.358767,30.525556,114.353246616,30.5278925314,3.5,
B001B0JZCA,新时盛商场(暂停营业),420000,湖北省,027,武汉市,420103,江汉区,购物服务;商场;普通商场,060102,江汉路步行街155号,114.28896331787109,30.582740783691406,114.28353881835937,30.585180282592773,3.0,
B001B0K34F,中百仓储南德新都购物广场,420000,湖北省,027,武汉市,420116,黄陂区,购物服务;商场;普通商场,060102,双凤大道大南街187号,114.380287,30.870401000000001,114.37471657,30.872549326800002,4.5,
B001B0I0Y9,新世界百货(徐东店),420000,湖北省,027,武汉市,420111,洪山区,购物服务;商场;购物中心,060101,徐东大街31号,114.34674835205078,30.588689804077148,114.34123992919922,30.591024398803711,5.0,
B001B0I1DO,中百仓储(唐家墩购物广场店),420000,湖北省,027,武汉市,420103,江汉区,购物服务;商场;购物中心,060101,唐家墩路258号,114.271257,30.620591,114.26584021,30.6230341554,4.7,
B001B0I5PB,假日乐园购物广场,420000,湖北省,027,武汉市,420106,武昌区,购物服务;商场;普通商场|购物服务;超级市场;超市,060102|060400,解放路464号,114.299873,30.547068,114.294439488,30.5495034867,3.5,
B001B0I64V,流行视窗购物广场(珞瑜路店),420000,湖北省,027,武汉市,420111,洪山区,购物服务;商场;购物中心,060101,珞瑜路20号,114.35388500000001,30.525870999999999,114.348370988,30.528215255500001,3.5,
B001B05D71,赞宏购物广场,420000,湖北省,027,武汉市,420113,汉南区,购物服务;商场;购物中心,060101,汉南大道281号,114.08135223388672,30.309103012084961,114.07563018798828,30.311460494995117,,
B001B0634F,中商广场(中南路),420000,湖北省,027,武汉市,420106,武昌区,购物服务;商场;购物中心,060101,中南路9号,114.33163452148437,30.53679084777832,114.32615661621094,30.53917121887207,4.9,
B001B0914C,金昌商业城,420000,湖北省,027,武汉市,420104,硚口区,购物服务;商场;普通商场,060102,汉正街728号金昌大厦,114.27816009521484,30.566762924194336,114.27275085449219,30.569221496582031,,
B001B0IKRF,花桥商品城,420000,湖北省,027,武汉市,420102,江岸区,购物服务;商场;普通商场,060102,江大路42号,114.284625,30.618304,114.279201137,30.6207344748,3.5,
B001B16L4V,汉商武展购物中心,420000,湖北省,027,武汉市,420103,江汉区,购物服务;商场;普通商场,060102,解放大道696号武汉国际会展中心B1层,114.27353668212891,30.581657409667969,114.26811981201172,30.584114074707031,4.5,
B001B1C63Z,新首信时尚广场,420000,湖北省,027,武汉市,420103,江汉区,购物服务;商场;普通商场,060102,中山大道754号武汉工艺大楼,114.28890228271484,30.576894760131836,114.28347778320313,30.579336166381836,,
B001B1GEWZ,万达广场(汉街店)(装修中),420000,湖北省,027,武汉市,420106,武昌区,购物服务;商场;购物中心,060101,沙湖大道18号,114.338213,30.55655,114.332719863,30.5589118255,5.0,
B001B0J6LZ,湘隆时代广场,420000,湖北省,027,武汉市,420114,蔡甸区,购物服务;商场;购物中心,060101,宁康路58号(武汉体育中心对面),114.168204,30.498151,114.162621293,30.5005461634,4.0,
B001B0IIVV,销品茂,420000,湖北省,027,武汉市,420106,武昌区,购物服务;商场;普通商场,060102,徐东大街18号,114.34312438964844,30.588230133056641,114.33761596679687,30.590570449829102,2.0,
B001B16M10,光谷天地,420000,湖北省,027,武汉市,420111,洪山区,购物服务;商场;购物中心,060101,关山大道519号,114.41053771972656,30.477058410644531,114.40500640869141,30.479373931884766,4.8,
B001B0JLHP,汉口北国际商品交易中心酒店用品城,420000,湖北省,027,武汉市,420116,黄陂区,购物服务;商场;普通商场,060102,刘店村汉口北大道111号,114.31760406494141,30.702140808105469,114.31212615966797,30.704479217529297,,
B001B0ITU8,汉阳百货商场(大众流行百货店),420000,湖北省,027,武汉市,420105,汉阳区,购物服务;商场;普通商场,060102,汉阳大道139号汉阳商场(近铜锣湾新世界),114.26710510253906,30.549476623535156,114.26169586181641,30.551950454711914,,
B001B0ASZZ,大汉口城,420000,湖北省,027,武汉市,420103,江汉区,购物服务;商场;普通商场,060102,中山大道539号,114.29032135009766,30.579055786132812,114.28489685058594,30.581493377685547,5.0,
B001B0JZY8,光谷国际广场,420000,湖北省,027,武汉市,420111,洪山区,购物服务;商场;购物中心,060101,珞喻路889号,114.39813,30.507502,114.392588993,30.5098075056,5.0,
B001B16MI2,中央大街,420000,湖北省,027,武汉市,420115,江夏区,购物服务;商场;普通商场,060102,江夏大道128号附1号,114.329573,30.354196999999999,114.324111383,30.356626233299998,3.5,
B001B16PWT,金正茂B区,420000,湖北省,027,武汉市,420104,硚口区,购物服务;商场;普通商场,060102,大夹街与横堤上街交叉口南50米,114.280928,30.567993000000001,114.27551115999999,30.570447267199999,,
B001B0JUKZ,乐天城,420000,湖北省,027,武汉市,420111,洪山区,购物服务;商场;购物中心,060101,珞喻路4,114.35467199999999,30.525797000000001,114.349156925,30.528139983599999,,
B001B0JX9J,武汉摩尔城,420000,湖北省,027,武汉市,420105,汉阳区,购物服务;商场;购物中心,060101,龙阳大道特6号,114.207033,30.559123,114.201551032,30.5615661274,5.0,
B001B0I6HQ,新佳丽时尚广场,420000,湖北省,027,武汉市,420103,江汉区,购物服务;商场;购物中心,060101,水塔街办事处中山大道818号,114.290978,30.578381,114.28555186299999,30.580818740000002,5.0,
B001B0I6HU,Happy站台美食购物广场(中山大道),420000,湖北省,027,武汉市,420103,江汉区,购物服务;商场;普通商场|购物服务;商场;购物中心,060102|060101,中山大道818号佳丽广场B1层(民生路口),114.29169,30.578363,114.286263143,30.580799740500002,4.4,
B001B15PT1,富迪玉贤购物广场,420000,湖北省,027,武汉市,420114,蔡甸区,购物服务;商场;普通商场,060102,玉贤路7号,113.985505,30.524304,113.97994958,30.526838396,,
B001B0IRJW,楚天时尚广场,420000,湖北省,027,武汉市,420106,武昌区,购物服务;商场;购物中心,060101,中北路特1号,114.33795166015625,30.548223495483398,114.33246612548828,30.550588607788086,3.5,
B001B0AH39,中商徐东平价广场,420000,湖北省,027,武汉市,420111,洪山区,购物服务;商场;普通商场,060102,徐东路7号,114.344977,30.589977,114.339470348,30.5923140773,5.0,
B001B0JYZC,武汉国际广场,420000,湖北省,027,武汉市,420103,江汉区,购物服务;商场;购物中心,060101,解放大道690号,114.271129,30.579915,114.26571575,30.582374261399998,5.0,
B001B16VS3,新武展购物广场(暂停营业),420000,湖北省,027,武汉市,420103,江汉区,购物服务;商场;普通商场,060102,解放大道369号,114.273287,30.58136,114.267872935,30.583816927099999,3.5,
B001B05DC2,新民众乐园,420000,湖北省,027,武汉市,420103,江汉区,购物服务;商场;商场,060100,中山大道608号凯德广场,114.28770900000001,30.575984999999999,114.28228617800001,30.578428077800002,4.5,
B001B0INT1,沿江一号Mall,420000,湖北省,027,武汉市,420103,江汉区,购物服务;商场;购物中心|商务住宅;楼宇;商务写字楼,060101|120201,沿江大道一号,114.28962707519531,30.567420959472656,114.28420257568359,30.569864273071289,3.5,
B001B1BY1R,泰发商城,420000,湖北省,027,武汉市,420104,硚口区,购物服务;商场;普通商场,060102,民意四路23号,114.278465,30.574219,114.273049135,30.5766736448,,
B001B16OFH,虎泉购物广场,420000,湖北省,027,武汉市,420111,洪山区,购物服务;商场;购物中心,060101,卓刀泉路特1号(青年酒店旁),114.369668,30.513935,114.364136688,30.5162598495,3.5,
B001B0JNE3,大洋百货(光谷店),420000,湖北省,027,武汉市,420111,洪山区,购物服务;商场;购物中心,060101,光谷世界城光谷街3号1区101,114.40166,30.505807,114.396120406,30.5081126369,4.7,
B001B16DY4,台北商场,420000,湖北省,027,武汉市,420102,江岸区,购物服务;商场;普通商场,060102,丹水池村提角前街1-13号,114.341224,30.659079,114.335717148,30.6613941988,,
B001B16LHZ,江夏中心百货,420000,湖北省,027,武汉市,420115,江夏区,购物服务;商场;普通商场,060102,兴新街172号,114.313259,30.348461,114.307823875,30.350921911699999,3.5,
B001B16OLG,汉商银座购物中心,420000,湖北省,027,武汉市,420105,汉阳区,购物服务;商场;购物中心,060101,汉阳大道134号,114.26764678955078,30.549497604370117,114.26223754882812,30.551971435546875,4.5,
B001B06SEO,新世界百货(国贸店),420000,湖北省,027,武汉市,420103,江汉区,购物服务;商场;购物中心,060101,建设大道566号,114.269964,30.594962,114.264549748,30.5974164234,5.0,
B001B06UZ3,武昌广东商城,420000,湖北省,027,武汉市,420106,武昌区,购物服务;商场;普通商场,060102,司门口解放路451号附13号(司门口天桥旁),114.299047,30.546974,114.293614523,30.5494108434,3.0,
B001B16S0H,北苑购物中心,420000,湖北省,027,武汉市,420115,江夏区,购物服务;商场;购物中心,060101,南湖南路一号中南财经政法大学北门(近南湖),114.388826,30.477761,114.383287099,30.4800786152,3.5,
B001B16X5Q,C2时尚广场,420000,湖北省,027,武汉市,420102,江岸区,购物服务;商场;普通商场,060102,二七路解放大道2159号,114.316471,30.623213,114.311007235,30.6255905322,3.5,
B001B17EQL,中百百货(黄陂购物中心店),420000,湖北省,027,武汉市,420116,黄陂区,购物服务;商场;普通商场|购物服务;家电电子卖场;家电电子卖场,060102|060300,黄陂大道387号黄陂购物中心1-4层,114.37714385986328,30.880586624145508,114.37157440185547,30.882732391357422,4.5,
B001B09R9T,源强工艺玩具地下商城,420000,湖北省,027,武汉市,420104,硚口区,购物服务;商场;普通商场,060102,汉正街石码正巷123号,114.27497100830078,30.565242767333984,114.26955413818359,30.567705154418945,,
B001B0IYFI,暨济商城(沿河大道),420000,湖北省,027,武汉市,420104,硚口区,购物服务;商场;普通商场,060102,沿河大道与石码头正巷交叉口北150米,114.275491,30.563241,114.270077595,30.5657025801,3.5,
B001B1BPME,世界城广场,420000,湖北省,027,武汉市,420111,洪山区,购物服务;商场;购物中心,060101,珞喻路766号(近光谷步行街),114.405185,30.506209999999999,114.399647246,30.508515679199999,5.0,
B001B18XV6,汉口城市广场购物中心,420000,湖北省,027,武汉市,420102,江岸区,购物服务;商场;购物中心,060101,后湖大道111号,114.306636,30.65195,114.301184406,30.6543329942,,
B001B1715J,中商平价珞珈山购物广场,420000,湖北省,027,武汉市,420106,武昌区,购物服务;商场;普通商场,060102,珞珈山路19号(近武汉大学),114.356662,30.533031,114.351143654,30.5353684146,3.5,
B001B1GKIU,人信汇(汉阳店),420000,湖北省,027,武汉市,420105,汉阳区,购物服务;商场;购物中心,060101,龙阳大道58号,114.204763,30.551453,114.199276289,30.5538955139,3.5,
B001B1C3HI,宜佳购物广场(兴新街),420000,湖北省,027,武汉市,420115,江夏区,购物服务;商场;购物中心,060101,,114.31591899999999,30.347300000000001,114.310479896,30.349756184899999,3.5,
B001B1C9IR,广达商厦,420000,湖北省,027,武汉市,420117,新洲区,购物服务;商场;购物中心,060101,阳逻开发区新洲大街67号,114.806279,30.843665,114.80105999,30.8460517063,,
B001B0JL25,大洋百货(武汉龙阳店),420000,湖北省,027,武汉市,420105,汉阳区,购物服务;商场;购物中心,060101,龙阳大道36号,114.20869445800781,30.560909271240234,114.20320892333984,30.5633544921875,4.8,
B001B0JNCL,中百仓储(紫微星购物广场),420000,湖北省,027,武汉市,420115,江夏区,购物服务;商场;购物中心,060101,藏龙岛光谷大道紫微星广场1-2层,114.423466,30.436463,114.417954066,30.4387970855,4.6,
B001B1CBAH,悦荟广场,420000,湖北省,027,武汉市,420103,江汉区,购物服务;商场;购物中心|购物服务;商场;普通商场,060101|060102,民生路176号,114.29148101806641,30.577568054199219,114.28604888916016,30.580005645751953,4.0,
B001B1CIVW,C·时尚广场,420000,湖北省,027,武汉市,420111,洪山区,购物服务;商场;商场,060100,光谷步行街3号家乐福(光谷店)附近,114.403271,30.505327000000001,114.397732228,30.5076327883,,
B001B066DC,鲁巷广场购物中心(装修中),420000,湖北省,027,武汉市,420111,洪山区,购物服务;商场;购物中心,060101,珞喻路726号,114.395913,30.506229,114.390371618,30.5085354043,4.5,
B001B07U0L,群光广场,420000,湖北省,027,武汉市,420111,洪山区,购物服务;商场;普通商场,060102,珞喻路6号,114.35532379150391,30.525184631347656,114.34980773925781,30.52752685546875,5.0,
B001B08BRC,武商亚贸广场购物中心,420000,湖北省,027,武汉市,420106,武昌区,购物服务;商场;购物中心,060101,武珞路628号,114.342762,30.529261,114.337264046,30.5316236236,4.5,
B001B08YA3,黄陂商场,420000,湖北省,027,武汉市,420116,黄陂区,购物服务;商场;普通商场,060102,民安街85号,114.376665,30.868454,114.37109692600001,30.870606931899999,,
B001B09DU2,时代美博城,420000,湖北省,027,武汉市,420103,江汉区,购物服务;商场;普通商场,060102,六渡桥前进一路6号,114.2840576171875,30.576221466064453,114.27864074707031,30.578668594360352,,20334.00
B001B17GED,阳光购物中心(烟酒副食店),420000,湖北省,027,武汉市,420117,新洲区,购物服务;商场;普通商场|购物服务;便民商店/便利店;便民商店/便利店,060102|060200,仓埠街道周铺创新实验幼儿园对面,114.618157,30.788639,114.613078586,30.7911813411,,
B001B15XZU,白马购物中心,420000,湖北省,027,武汉市,420113,汉南区,购物服务;商场;普通商场,060102,汉南大道325号,114.083587,30.310294,114.0778669,30.3126491843,,
B001B1IO9C,销品茂中商百货,420000,湖北省,027,武汉市,420106,武昌区,购物服务;商场;普通商场|购物服务;便民商店/便利店;便民商店/便利店,060102|060200,徐东大街18号1栋1-3层中商百货服务台,114.342235,30.587696000000001,114.336732786,30.590038939399999,5.0,
B001B16GBO,新世纪超市(银城店),420000,湖北省,027,武汉市,420114,蔡甸区,购物服务;商场;普通商场|购物服务;便民商店/便利店;便民商店/便利店,060102|060200,创业道128号长江大酒店沌口店,114.157267,30.486704,114.151653917,30.489082238999998,3.5,
B001B16KZD,铜锣湾休闲佰惠广场,420000,湖北省,027,武汉市,420115,江夏区,购物服务;商场;普通商场,060102,兴新街158号,114.3153076171875,30.348043441772461,114.30987548828125,30.350500106811523,3.5,
B001B0HZ72,武商广场,420000,湖北省,027,武汉市,420103,江汉区,购物服务;商场;购物中心,060101,解放大道688号,114.27017974853516,30.580192565917969,114.26476287841797,30.582651138305664,4.8,
B001B18O35,马德里时尚百货,420000,湖北省,027,武汉市,420111,洪山区,购物服务;商场;购物中心,060101,光谷步行街二期西班牙风情街,114.40432,30.503288,114.398781983,30.5055944658,3.5,
B001B18OBN,大智商城,420000,湖北省,027,武汉市,420102,江岸区,购物服务;商场;普通商场,060102,交易街26号融兴大厦,114.29430389404297,30.587690353393555,114.28887176513672,30.590120315551758,3.5,
B001B1AS1B,福客茂,420000,湖北省,027,武汉市,420106,武昌区,购物服务;商场;购物中心,060101,友谊大道396号,114.341093,30.586623,114.335592671,30.5889684518,3.5,
B001B16S07,名流城市商业广场,420000,湖北省,027,武汉市,420116,黄陂区,购物服务;商场;购物中心,060101,巨龙大道88号,114.274924,30.709127,114.269498258,30.7115270878,,
B001B0622F,新世界百货(时尚广场店),420000,湖北省,027,武汉市,420102,江岸区,购物服务;商场;购物中心,060101,江汉路118号港澳中心1-4层,114.290008,30.582259000000001,114.28458248699999,30.5846966368,5.0,
B001B17ERX,罗汉商场,420000,湖北省,027,武汉市,420116,黄陂区,购物服务;商场;普通商场,060102,东升路与龙兴街交叉口西南50米,114.306988,30.954592,114.301509516,30.9568122685,,
B001B1BMX1,联合一百冷链购物中心,420000,湖北省,027,武汉市,420111,洪山区,购物服务;商场;购物中心|购物服务;超级市场;超市,060101|060400,丽水路冷链市场公外商特1号,114.262349,30.459715,114.256946869,30.4622177363,,
B001B1GYLS,方圆荟,420000,湖北省,027,武汉市,420105,汉阳区,购物服务;商场;购物中心,060101,龙阳大道与四新大道交汇处,114.189294,30.533986,114.183768555,30.5364090788,4.0,
B001B1BPN6,汉商百货,420000,湖北省,027,武汉市,420105,汉阳区,购物服务;商场;普通商场,060102,汉阳大道137号汉商银座购物中心DEF座1-5层,114.267539,30.549261999999999,114.262129109,30.551734899900001,,
B001B16MPH,东龙通讯,420000,湖北省,027,武汉市,420106,武昌区,购物服务;商场;普通商场,060102,紫沙路东龙世纪花园百花居5栋,114.321327,30.550708,114.315861818,30.5531040095,,
B001B1BY23,三福时尚(武展东路),420000,湖北省,027,武汉市,420103,江汉区,购物服务;商场;普通商场,060102,汉商武展购物中心B2层,114.27361399999999,30.581789000000001,114.26819977700001,30.584245480300002,3.5,
B001B1C3BC,新长盛广场,420000,湖北省,027,武汉市,420102,江岸区,购物服务;商场;普通商场,060102,江汉路步行街126号,114.28907775878906,30.582963943481445,114.28365325927734,30.58540153503418,3.5,
B001B15PM5,万家福购物中心(市场街),420000,湖北省,027,武汉市,420112,东西湖区,购物服务;商场;普通商场|购物服务;超级市场;超市,060102|060400,东荷新路4号,113.947773,30.695017,113.942284423,30.697579106399999,,
B001B0JVCG,万达广场(菱角湖店),420000,湖北省,027,武汉市,420103,江汉区,购物服务;商场;购物中心,060101,唐家墩路5号,114.2686767578125,30.610103607177734,114.26326751708984,30.612552642822266,5.0,
B001B1FOKP,哈乐城,420000,湖北省,027,武汉市,420111,洪山区,购物服务;商场;普通商场,060102,关山大道328号,114.41065979003906,30.492931365966797,114.40512847900391,30.495241165161133,,
B001B16Q8I,鑫泊美广场,420000,湖北省,027,武汉市,420103,江汉区,购物服务;个人用品/化妆品店;其它个人用品店|购物服务;商场;普通商场|购物服务;服装鞋帽皮具店;服装鞋帽皮具店,061400|060102|061100,前进街办事处前进一路六渡桥泊美广场二楼,114.283716,30.576654999999999,114.278296434,30.579102857599999,,
B001B16S2Z,百联奥特莱斯主题公园,420000,湖北省,027,武汉市,420116,黄陂区,购物服务;商场;购物中心,060101,盘龙大道51号,114.257769,30.731483,114.252342563,30.7338826828,5.0,
B001B15YDC,青山商场,420000,湖北省,027,武汉市,420107,青山区,购物服务;商场;普通商场,060102,和平大道1544号,114.40310668945312,30.63908576965332,114.39756011962891,30.641342163085938,5.0,
B001B16O5P,未来城购物中心,420000,湖北省,027,武汉市,420111,洪山区,购物服务;商场;购物中心,060101,珞狮南路147号,114.35320900000001,30.524930999999999,114.34769599800001,30.52727668,,
B001B16QJU,利商新源日用品市场,420000,湖北省,027,武汉市,420104,硚口区,购物服务;商场;普通商场,060102,利济南路汉正街万安c栋,114.27017211914062,30.564653396606445,114.26476287841797,30.567119598388672,,
B001B171HX,万达广场(经开店),420000,湖北省,027,武汉市,420114,蔡甸区,购物服务;商场;购物中心,060101,东风大道111号,114.174648,30.507031000000001,114.16908323299999,30.509435658699999,5.0,
B001B0JLMX,联峰时代广场,420000,湖北省,027,武汉市,420111,洪山区,购物服务;商场;普通商场,060102,鲁磨路6号,114.400106,30.51062,114.394565354,30.5129242758,,
B001B1BW69,江夏文化商城,420000,湖北省,027,武汉市,420115,江夏区,购物服务;商场;商场,060100,兴新街144附1-2,114.31584167480469,30.347892761230469,114.31040191650391,30.350349426269531,3.2,
B001B1H2KB,温州城,420000,湖北省,027,武汉市,420103,江汉区,商务住宅;楼宇;商务写字楼|购物服务;商场;普通商场|商务住宅;住宅区;住宅小区,120201|060102|120302,中山大道375号,114.284587,30.575703000000001,114.27916684,30.578150152999999,3.5,
B001B1IQWX,大洋百货(华美月饼提货点店),420000,湖北省,027,武汉市,420105,汉阳区,购物服务;商场;商场,060100,龙阳大道36号,114.20923500000001,30.561672000000002,114.203757912,30.5641173004,,
B001B1C5D9,海林广场,420000,湖北省,027,武汉市,420112,东西湖区,购物服务;商场;购物中心,060101,田园大道1196号(东吴大道与三秀路交接处绿源电动车对面),114.14448547363281,30.622737884521484,114.13882446289062,30.62504768371582,5.0,
B001B1II8R,武展店,420000,湖北省,027,武汉市,420103,江汉区,购物服务;商场;普通商场,060102,万松街办事处解放大道696号,114.274165,30.581725,114.268750569,30.5841810151,,
B001B16TBS,北冰洋城市广场,420000,湖北省,027,武汉市,420112,东西湖区,购物服务;商场;购物中心,060101,四明路和东吴大道交汇处,114.142605,30.622461999999999,114.136940426,30.624768082799999,3.5,
B001B1C76W,新洲摩尔城,420000,湖北省,027,武汉市,420117,新洲区,购物服务;商场;购物中心,060101,衡州大街100号,114.802246,30.833923,114.797020257,30.836308471,4.0,
B001B1CP2R,南国北都城市广场,420000,湖北省,027,武汉市,420103,江汉区,购物服务;商场;普通商场,060102,姑嫂树路12号(姑嫂树路和兴业路交叉口),114.26630900000001,30.627133000000001,114.260892528,30.629576956499999,,18412.00
B001B1C0QI,瑞景广场,420000,湖北省,027,武汉市,420106,武昌区,购物服务;商场;购物中心,060101,宝通寺路百瑞景(南一区东二门)附近,114.33399,30.52051,114.328506813,30.5228918321,,
B001B1C787,湘隆时代商业中心,420000,湖北省,027,武汉市,420114,蔡甸区,购物服务;商场;购物中心,060101,东风大道159号,114.168232,30.496916,114.162649482,30.4993115778,,16159.00
B001B1C96G,闽东国际城步行街生活广场,420000,湖北省,027,武汉市,420105,汉阳区,购物服务;特色商业街;步行街|购物服务;商场;购物中心,061001|060101,钟家村汉阳大道140号闽东国际城,114.26563262939453,30.551074981689453,114.26022338867187,30.553548812866211,3.5,
B001B1CC98,流行视窗购物广场(卓豹店),420000,湖北省,027,武汉市,420111,洪山区,购物服务;商场;普通商场,060102,雄楚大道杨家塆保利华都A座,114.383968,30.505448999999999,114.378427991,30.507761903399999,,
B001B1CCBG,凯德广场(武胜店),420000,湖北省,027,武汉市,420104,硚口区,购物服务;商场;购物中心,060101,中山大道238号,114.267015,30.568734,114.261603495,30.5712003528,5.0,
B001B1C6NU,中南天紫广场,420000,湖北省,027,武汉市,420106,武昌区,购物服务;商场;普通商场|商务住宅;商务住宅相关;商务住宅相关,060102|120000,中南一路3号,114.332117,30.537825999999999,114.326635364,30.540205778600001,3.5,
B001B1D7I3,中核世纪广场,420000,湖北省,027,武汉市,420114,蔡甸区,购物服务;商场;购物中心,060101,凤凰路特1号,114.060391,30.564455,114.054661699,30.5667775638,3.5,
B001B0I1GX,中百仓储兴业南路东方明珠店,420000,湖北省,027,武汉市,420102,江岸区,购物服务;商场;购物中心,060101,后湖街金桥大道18号新地东方明珠店12栋一层一室,114.299259,30.636953,114.293818489,30.639354829,2.0,
B001B1CDSC,航空路购物广场,420000,湖北省,027,武汉市,420103,江汉区,购物服务;商场;普通商场,060102,万松街办事处万松园路特1号创世纪广场工贸家电航空路,114.268168,30.581158,114.262755278,30.5836189918,3.5,
B001B1D790,南大天地,420000,湖北省,027,武汉市,420104,硚口区,购物服务;商场;普通商场,060102,解放大道和硚口路交汇处,114.252041,30.573273,114.246625774,30.5757432752,3.5,
B001B0JNDX,中百仓储汉南购物广场,420000,湖北省,027,武汉市,420113,汉南区,购物服务;商场;购物中心,060101,汉南大道580号,114.085161,30.311307,114.079440897,30.3136610852,4.7,
B001B0JON9,中百仓储(黄陂店),420000,湖北省,027,武汉市,420116,黄陂区,购物服务;商场;普通商场,060102,黄陂大道162号黄陂购物广场,114.372399,30.881419000000001,114.366832997,30.883569159,4.5,
B001B17FXU,德成·汉南广场,420000,湖北省,027,武汉市,420113,汉南区,购物服务;商场;普通商场,060102,薇湖路503附9西北方向10米,114.071586,30.306896,114.065869729,30.3092626984,3.0,
B001B18O85,MO+Living Theater,420000,湖北省,027,武汉市,420106,武昌区,购物服务;商场;普通商场,060102,民主二路与民主路交叉口南50米,114.325823,30.543811,114.320351133,30.5462008048,,
B001B1BXCI,华中师范大学东区购物广场,420000,湖北省,027,武汉市,420111,洪山区,购物服务;商场;普通商场,060102,卓刀泉南路4号,114.364598,30.512558,114.359071918,30.5148900107,3.0,
B001B1DDL9,江广商城,420000,湖北省,027,武汉市,420115,江夏区,购物服务;商场;普通商场,060102,江夏大道36号,114.32978057861328,30.351541519165039,114.32431793212891,30.353971481323242,,
B001B1FTN7,群星城,420000,湖北省,027,武汉市,420106,武昌区,购物服务;商场;购物中心,060101,徐东大街120号,114.34914000000001,30.584181000000001,114.343627626,30.586512907100001,4.9,
B0FFF2JUEJ,华商平价广场(汪集店),420000,湖北省,027,武汉市,420117,新洲区,购物服务;商场;普通商场,060102,汪兴路与汪贤路交汇处西南150米,114.708923,30.777926,114.703684344,30.7803264938,1.6,
B0FFF5GJP4,群光宿舍楼,420000,湖北省,027,武汉市,420111,洪山区,购物服务;商场;普通商场|商务住宅;住宅区;宿舍,060102|120303,珞瑜路6号8楼,114.35525512695312,30.52522087097168,114.34973907470703,30.527563095092773,,22812.00
B0FFF2SYAH,黄陂广场C区,420000,湖北省,027,武汉市,420116,黄陂区,购物服务;商场;购物中心,060101,黄陂大道387号近黄陂区政府黄陂广场,114.375714,30.879901,114.37014557000001,30.882048340499999,,
B0FFF61R0D,奥山世纪广场,420000,湖北省,027,武汉市,420107,青山区,购物服务;商场;购物中心,060101,和平大道809号,114.360711,30.617162,114.355180236,30.6194620626,4.9,
B0FFF0F9TZ,泊龙湾商业广场,420000,湖北省,027,武汉市,420114,蔡甸区,购物服务;商场;普通商场,060102,大沌公路102号,114.056237,30.503558,114.050518269,30.5059078705,,
B0FFF3WBYH,ATT时尚广场,420000,湖北省,027,武汉市,420107,青山区,购物服务;商场;普通商场,060102,红钢四街1附2号,114.400152,30.637581,114.394600255,30.639838533,3.5,
B0FFF3W3ZF,维佳·佰港城,420000,湖北省,027,武汉市,420111,洪山区,购物服务;商场;商场,060100,文治街与丁字桥南路交叉路口,114.326487,30.503319,114.321017556,30.5057204519,5.0,
B0FFF4ICM0,东澜岸广场,420000,湖北省,027,武汉市,420111,洪山区,购物服务;商场;普通商场,060102,白沙洲大道6号黄家湖西路,114.263432,30.432761,114.258032256,30.4352697244,,13333.00
B0FFF2GT2F,汉商21世纪购物中心,420000,湖北省,027,武汉市,420105,汉阳区,购物服务;商场;商场,060100,汉阳大道687号,114.21079254150391,30.560447692871094,114.20531463623047,30.562894821166992,4.5,
B0FFF0EWBI,华都商贸城,420000,湖北省,027,武汉市,420111,洪山区,购物服务;商场;普通商场,060102,虎泉街尚文创业城549号(保利华都营销中心对面),114.385289,30.504869,114.379748584,30.5071811056,3.5,
B0FFF3LMGW,幸福时代百货广场,420000,湖北省,027,武汉市,420117,新洲区,购物服务;商场;购物中心,060101,龙腾大街100号(新洲人民广场斜对面),114.800415,30.826763,114.79518654500001,30.8291495275,,
B0FFF67M09,汉飞·逛逛街,420000,湖北省,027,武汉市,420106,武昌区,购物服务;商场;普通商场,060102,彭刘杨西路115附近,114.296526,30.540332,114.291097118,30.5427750461,3.5,
B0FFF3OQEM,新港天地,420000,湖北省,027,武汉市,420117,新洲区,购物服务;商场;购物中心|商务住宅;住宅区;住宅小区,060101|120302,新港阳逻开发区阳光大道557号,114.571926,30.667814,114.566841476,30.6704108208,,8713.00
B0FFF5LXW1,威士顿商贸,420000,湖北省,027,武汉市,420111,洪山区,购物服务;商场;购物中心,060101,街道口阜华大厦,114.353846,30.525577999999999,114.348332066,30.527922414199999,,
B0FFF5LIYF,罗马春天奥特莱斯,420000,湖北省,027,武汉市,420115,江夏区,购物服务;商场;购物中心|购物服务;商场;普通商场,060101|060102,江夏大道62号,114.370239,30.386485,114.364718254,30.3888405579,5.0,
B0FFF67LG6,鑫鼎商城,420000,湖北省,027,武汉市,420104,硚口区,购物服务;商场;普通商场,060102,汉正街石码正巷95号,114.27489799999999,30.564598,114.26948473900001,30.567059645800001,3.0,
B0FFF2U8X3,黄陂广场E区,420000,湖北省,027,武汉市,420116,黄陂区,购物服务;商场;普通商场|购物服务;商场;购物中心,060102|060101,黄陂大道185号,114.37437438964844,30.880392074584961,114.36881256103516,30.882541656494141,,
B0FFFD305I,百汇井时尚购(雄楚大道),420000,湖北省,027,武汉市,420111,洪山区,购物服务;商场;购物中心,060101,雄楚大道金地雄楚一号,114.39022064208984,30.497695922851562,114.38468170166016,30.500007629394531,4.5,
B0FFFDVTJZ,SOMERSET(凯德广场店),420000,湖北省,027,武汉市,420104,硚口区,购物服务;商场;普通商场|住宿服务;宾馆酒店;宾馆酒店,060102|100100,中山大道238号凯德广场7层,114.266579,30.568977,114.261167515,30.5714435438,3.5,
B0FFFA1E7N,人信武胜里,420000,湖北省,027,武汉市,420104,硚口区,商务住宅;住宅区;住宅小区|购物服务;商场;商场,120302|060100,硚口武胜路99号,114.26712799072266,30.570466995239258,114.26171112060547,30.572933197021484,,
B0FFFD1MIU,珞珈创意体验城,420000,湖北省,027,武汉市,420111,洪山区,购物服务;商场;购物中心,060101,珞瑜路33号1F层,114.35651300000001,30.526502000000001,114.350995418,30.528841775899998,,
B0FFFDBLIZ,卓刀泉广场,420000,湖北省,027,武汉市,420111,洪山区,购物服务;商场;购物中心,060101,雄楚大街陈家湾,114.366115,30.508412,114.360587664,30.5107431866,3.5,
B0FFFDDRIJ,华联购物广场(阳逻旗舰店),420000,湖北省,027,武汉市,420117,新洲区,购物服务;商场;普通商场|购物服务;超级市场;超市,060102|060400,阳逻街金三角商业街佳兴超市,114.560571,30.652138,114.55546672,30.6547260218,3.0,
B0FFFFNV3P,东部购物公园,420000,湖北省,027,武汉市,420102,江岸区,购物服务;商场;购物中心|购物服务;商场;普通商场,060101|060102,解放大道二七街派出所福建社区警务室西200米,114.31662750244141,30.622812271118164,114.31116485595703,30.625188827514648,4.0,
B0FFFFP7WH,汉口北国际商品交易中心,420000,湖北省,027,武汉市,420116,黄陂区,购物服务;商场;购物中心,060101,汉口北大道88号,114.322226,30.703034,114.316746141,30.7053648183,3.0,
B0FFFA1PL0,E品搜秀城,420000,湖北省,027,武汉市,420102,江岸区,购物服务;商场;普通商场,060102,汉口车站路70号老汉口火车站旁、车站路与友谊街交汇处,114.29825592041016,30.592647552490234,114.29281616210937,30.595067977905273,,
B0FFFFYDM7,仓埠商场,420000,湖北省,027,武汉市,420117,新洲区,购物服务;商场;普通商场,060102,武滨路与骑云街交叉口南50米,114.603816,30.834562,114.598740492,30.837087081,5.0,
B0FFFD3QT6,武商众圆广场,420000,湖北省,027,武汉市,420107,青山区,购物服务;商场;购物中心,060101,和平大道959号,114.37709808349609,30.626800537109375,114.37155151367187,30.62907600402832,5.0,
B0FFFACZ37,漫时区,420000,湖北省,027,武汉市,420106,武昌区,购物服务;商场;普通商场,060102,和平大道三角路水岸国际,114.323582,30.574859,114.318111086,30.5772420842,4.0,
B0FFFFAPXD,泛海城市广场,420000,湖北省,027,武汉市,420103,江汉区,购物服务;商场;商场,060100,云杉路199号(近淮海路),114.25538,30.603073999999999,114.24996381,30.605532371500001,4.5,
B0FFFGULCQ,永旺梦乐城(金银潭店),420000,湖北省,027,武汉市,420112,东西湖区,购物服务;商场;购物中心,060101,金银潭大道1号,114.237878,30.650288,114.232443788,30.6527246704,4.7,
B0FFFFNKK9,九全嘉国际广场,420000,湖北省,027,武汉市,420115,江夏区,购物服务;商场;购物中心,060101,九全嘉国际广场3层卫生间旁,114.32939,30.358688999999998,114.323928295,30.3611178743,5.0,
B0FFFLJSNS,纪念日百货(吉庆街),420000,湖北省,027,武汉市,420102,江岸区,购物服务;商场;普通商场,060102,吉庆街20号新长盛广场B1层,114.289176,30.583231999999999,114.283751201,30.5856704077,5.0,
B0FFFDRU1P,武汉英特宜家购物中心,420000,湖北省,027,武汉市,420104,硚口区,购物服务;商场;购物中心|购物服务;家居建材市场;家具城,060101|060602,荟聚2楼Setiflower,114.167551,30.618347,114.16195585600001,30.620698543300001,,
B0FFFGUL9D,光谷世纪广场,420000,湖北省,027,武汉市,420115,江夏区,购物服务;商场;购物中心,060101,杨桥湖大道15号,114.430029,30.420158,114.424529664,30.4225029095,,
B0FFFPA0EG,武汉悦荟B座,420000,湖北省,027,武汉市,420103,江汉区,购物服务;商场;购物中心,060101,民生路172附近,114.29104700000001,30.577067,114.28562090699999,30.579505132000001,,
B0FFFFZBVR,黄陂·木兰国际广场,420000,湖北省,027,武汉市,420116,黄陂区,购物服务;商场;购物中心,060101,前川大南街157号木兰国际广场,114.366217,30.878694,114.360657047,30.8808535456,,10064.00
B0FFFGUHGL,东星商城,420000,湖北省,027,武汉市,420112,东西湖区,购物服务;商场;普通商场,060102,5丰街73号,114.13988,30.622796,114.134208568,30.6250978028,,
B0FFFESN73,中商百货(中商广场店)A区,420000,湖北省,027,武汉市,420106,武昌区,购物服务;商场;购物中心,060101,中南路11号附近,114.33212280273437,30.537172317504883,114.32663726806641,30.539552688598633,,
B0FFFQZI96,凯德1818,420000,湖北省,027,武汉市,420106,武昌区,购物服务;商场;普通商场,060102,中北路109号,114.340074,30.552896,114.334578215,30.5552556307,5.0,
B0FFFFP7PS,中百广场(江夏店),420000,湖北省,027,武汉市,420115,江夏区,购物服务;商场;购物中心,060101,纸坊街文华路37号,114.321385,30.364694,114.315935771,30.3671371801,5.0,
B0FFFGUQ7U,欢乐汇,420000,湖北省,027,武汉市,420111,洪山区,购物服务;商场;普通商场,060102,书城路18号,114.339475,30.506316,114.333984211,30.5086918836,3.5,
B0FFFFP73X,南湖中央广场,420000,湖北省,027,武汉市,420111,洪山区,购物服务;商场;购物中心,060101,保利·中央公馆G5G6-S08,114.324732,30.496731,114.319265983,30.4991377539,3.5,
B0FFFQ88MF,御美广场,420000,湖北省,027,武汉市,420103,江汉区,购物服务;商场;普通商场|购物服务;专卖店;专营店,060102|061200,前进一路与民主二街交叉口北50米,114.283182,30.57742,114.27776276900001,30.579868210600001,,
B0FFFGUIVL,欢乐广场,420000,湖北省,027,武汉市,420115,江夏区,购物服务;商场;普通商场,060102,江夏区经济开发区藏龙岛办事处湖北经济学院(杨桥湖大道),114.430262,30.419930,114.42476312,30.4222752478,,
B0FFFPA0F1,武汉悦荟C座,420000,湖北省,027,武汉市,420103,江汉区,购物服务;商场;购物中心,060101,交通路1号,114.292125,30.578264999999998,114.286697702,30.580701155900002,3.5,
B0FFFFADYP,金桥·摩尔街,420000,湖北省,027,武汉市,420105,汉阳区,购物服务;商场;普通商场,060102,桥机路桥机嘉园,114.260872,30.529715,114.255463675,30.5321980859,,
B0FFFP9KAE,汉正广场,420000,湖北省,027,武汉市,420104,硚口区,购物服务;商场;普通商场,060102,利济南路与汉正街交汇处,114.27364349365234,30.566234588623047,114.26823425292969,30.568696975708008,,
B0FFFFP4PD,永旺梦乐城(经开店),420000,湖北省,027,武汉市,420105,汉阳区,购物服务;商场;购物中心,060101,江城大道388号,114.20594787597656,30.503803253173828,114.20046997070312,30.506263732910156,,17000.00
B0FFFQ0VSH,天亿广场,420000,湖北省,027,武汉市,420106,武昌区,购物服务;商场;普通商场,060102,体育街新宇佳苑,114.30357360839844,30.53779411315918,114.29813385009766,30.540227890014648,3.0,
B0FFFFP4W9,万隆广场(白沙洲大道高架),420000,湖北省,027,武汉市,420106,武昌区,购物服务;商场;普通商场,060102,武泰闸涂家沟特1号,114.30329132080078,30.519098281860352,114.2978515625,30.521537780761719,5.0,
B0FFFOOPI6,凯乐生活广场,420000,湖北省,027,武汉市,420111,洪山区,购物服务;商场;购物中心,060101,卓刀泉路108号凯乐桂园1-5楼,114.370805,30.511233,114.365272895,30.5135572762,3.0,
B0FFFTCVLA,中商百货(中商广场店)B区,420000,湖北省,027,武汉市,420106,武昌区,购物服务;商场;购物中心,060101,中南路9号,114.331481,30.536583,114.326000511,30.538964406000002,,
B0FFFGUYMA,东西湖中心广场,420000,湖北省,027,武汉市,420112,东西湖区,购物服务;商场;购物中心,060101,五环路与东吴大道交界处(北冰洋城市广场旁),114.138559,30.623159,114.132884298,30.6254587088,,13657.00
B0FFFTL3D1,中南天紫广场-B馆,420000,湖北省,027,武汉市,420106,武昌区,购物服务;商场;商场,060100,中南一路3号,114.33181999999999,30.537870000000002,114.326338846,30.540250330700001,,
B0FFFKJEWF,欧亚达国际广场,420000,湖北省,027,武汉市,420103,江汉区,购物服务;商场;普通商场,060102,发展大道229号附近,114.253854,30.61461,114.248436146,30.6170640285,4.0,
B0FFFS6SQE,永丰广场A座,420000,湖北省,027,武汉市,420111,洪山区,购物服务;商场;普通商场,060102,东一路与喻园大道交叉口东北方向70米,114.415522,30.516527,114.409992437,30.5188331906,,
B0FFFFO46I,上东汇商业广场,420000,湖北省,027,武汉市,420102,江岸区,购物服务;商场;购物中心,060101,黄埔路68号,114.310492,30.614843,114.305038058,30.6172349131,3.0,
B0FFFFYC0M,华商平价广场(仓埠店),420000,湖北省,027,武汉市,420117,新洲区,购物服务;商场;普通商场,060102,新建街与武滨路交叉口西50米,114.602801,30.832969,114.59772572,30.8354952249,5.0,
B0FFFS8J57,世纪广场(艳阳天大厦南),420000,湖北省,027,武汉市,420117,新洲区,购物服务;商场;普通商场,060102,阳光大道324西南方向60米,114.569208,30.663454000000002,114.564119394,30.6660495086,3.5,
B0FFFT469R,裕美佳,420000,湖北省,027,武汉市,420116,黄陂区,购物服务;商场;普通商场,060102,盘龙城经济开发区巨龙大道178号,114.260764,30.709874,114.25534013,30.7122832951,,
B0FFFVDKIO,朗汇商业联合展示中心,420000,湖北省,027,武汉市,420106,武昌区,购物服务;商场;普通商场,060102,武珞路丁字桥车站旁,114.332578,30.53287,114.327096042,30.5352505384,,
B0FFFW3JIP,购物中心,420000,湖北省,027,武汉市,420103,江汉区,购物服务;商场;购物中心,060101,江汉经济开发区泛湖路,114.255958,30.602867,114.250542055,30.605325321,,
B0FFFS7GHH,六和商场,420000,湖北省,027,武汉市,420116,黄陂区,购物服务;商场;商场,060100,前川大道201号,114.37767791748047,30.868417739868164,114.37210845947266,30.870569229125977,,
B0FFFY0O71,家盛时代城市生活广场(中北店),420000,湖北省,027,武汉市,420106,武昌区,购物服务;商场;商场,060100,中北路120号,114.350349,30.562856,114.344836731,30.5651936643,3.5,
B0FFFZKZ8B,邓甲新城生活广场,420000,湖北省,027,武汉市,420105,汉阳区,购物服务;商场;普通商场,060102,五里墩街办事处五里墩街五里墩街街道五龙路龙江庭院c区全国邮政斜对面邓甲村,114.253775,30.541052,114.248363439,30.543533404,,
B0FFFTQJBJ,光谷天地E区,420000,湖北省,027,武汉市,420111,洪山区,购物服务;商场;购物中心,060101,关山大道475号附近,114.41073799999999,30.478335999999999,114.405206889,30.4806510833,,
B0FFFWLXJ8,星美国际影城(福星惠誉店),420000,湖北省,027,武汉市,420106,武昌区,体育休闲服务;影剧院;电影院|购物服务;商场;普通商场,080601|060102,友谊大道305号福星惠誉6漫时区3栋3层,114.324416,30.574722000000001,114.31894374399999,30.577103543900002,,
B0FFFZR2MW,阳光商城,420000,湖北省,027,武汉市,420111,洪山区,购物服务;商场;普通商场,060102,珞喻路882号,114.412753,30.507263,114.40722128,30.5095705824,4.6,25.00
B0FFFWNZWU,汇和城购物中心,420000,湖北省,027,武汉市,420112,东西湖区,购物服务;商场;购物中心,060101,地铁2号线常青花园站2层,114.242463,30.640926,114.237034572,30.643368375,3.5,
B0FFFXRW4W,佳兴广场,420000,湖北省,027,武汉市,420115,江夏区,购物服务;商场;普通商场,060102,兴新街224号,114.309465,30.348535,114.304035506,30.3510027484,3.5,
B0FFG08J33,兔子百货,420000,湖北省,027,武汉市,420103,江汉区,购物服务;商场;商场,060100,大洋百货6层,114.29045104980469,30.577903747558594,114.28502655029297,30.580343246459961,3.5,
B0FFG21BW9,奥特莱斯二期缤购天地,420000,湖北省,027,武汉市,420116,黄陂区,购物服务;商场;商场,060100,盘龙大道(百联奥特莱斯广场北侧),114.258164,30.733432,114.252737509,30.7358305761,,
B0FFG2S8G1,左岭商城,420000,湖北省,027,武汉市,420111,洪山区,购物服务;商场;普通商场,060102,高新大道66号,114.62125,30.490235,114.616193668,30.4929010924,,
B0FFG7U8QR,缤购城(建设中),420000,湖北省,027,武汉市,420111,洪山区,购物服务;商场;购物中心,060101,恒安路1号,114.313054,30.500325,114.307606124,30.5027526108,,
B0FFG6534G,新世纪超市,420000,湖北省,027,武汉市,420104,硚口区,购物服务;商场;普通商场|购物服务;便民商店/便利店;便民商店/便利店,060102|060200,解放大道125附1(融侨锦城东),114.20495200000001,30.593712,114.199462079,30.596139283500001,,
B0FFG904TO,星汇维港购物中心,420000,湖北省,027,武汉市,420104,硚口区,购物服务;商场;普通商场|购物服务;超级市场;超市,060102|060400,中山大道1号,114.250212,30.569264,114.244796029,30.5717358464,5.0,
B0FFG4I39H,奥莱之星城市广场,420000,湖北省,027,武汉市,420116,黄陂区,购物服务;商场;普通商场,060102,腾龙大道西50米,114.25540924072266,30.729530334472656,114.24997711181641,30.731931686401367,,11364.00
B0FFG7FDFX,万嘉广场,420000,湖北省,027,武汉市,420104,硚口区,购物服务;商场;购物中心|购物服务;综合市场;果品市场|风景名胜;公园广场;城市广场,060101|060704|110105,古田路57号(近古画路),114.195061,30.591564999999999,114.189546162,30.593977451400001,3.5,
B0FFG77BCF,武商众圆广场B精品馆,420000,湖北省,027,武汉市,420107,青山区,购物服务;商场;购物中心,060101,和平大道959号,114.37790679931641,30.626857757568359,114.37235260009766,30.629133224487305,3.5,
B0FFG4B410,新兰商业广场,420000,湖北省,027,武汉市,420114,蔡甸区,购物服务;商场;商场,060100,天鹅湖大道与泊龙路交叉口西南50米,114.055537,30.503976,114.049819178,30.506327037,,
B0FFGBNQGV,奥地利广场,420000,湖北省,027,武汉市,420104,硚口区,购物服务;商场;普通商场,060102,游艺路187号(顺道街与游艺路交汇处),114.274655,30.575852,114.269240874,30.5783097627,,
B0FFGBY5VI,汉正品牌大楼,420000,湖北省,027,武汉市,420104,硚口区,购物服务;商场;普通商场,060102,[],114.277399,30.569230000000001,114.271984147,30.571687561400001,,
B0FFG6R8NK,红枫金座,420000,湖北省,027,武汉市,420111,洪山区,商务住宅;楼宇;商住两用楼宇|购物服务;商场;普通商场,120203|060102,关山大道与纺织路交汇处西100米,114.409325,30.484681,114.403792117,30.4869938427,,20646.00
B0FFGCBDY2,武商众圆广场C潮品馆,420000,湖北省,027,武汉市,420107,青山区,购物服务;商场;购物中心,060101,建设三路959号附近武商众圆广场,114.37765502929687,30.627485275268555,114.37210845947266,30.629758834838867,,
B0FFG8QZYH,同兴生活广场,420000,湖北省,027,武汉市,420115,江夏区,购物服务;商场;普通商场,060102,流芳路108号,114.45194244384766,30.431903839111328,114.44649505615234,30.434282302856445,4.0,
B0FFG4LLIB,汉商银座知音站台,420000,湖北省,027,武汉市,420105,汉阳区,购物服务;商场;购物中心,060101,钟家村地铁4号6号线b出口,114.265649,30.549047000000002,114.260239289,30.551521170699999,3.5,
B0FFGA5HS6,奥莱之星,420000,湖北省,027,武汉市,420116,黄陂区,购物服务;商场;普通商场,060102,盘龙大道49号,114.255414,30.729716,114.249986888,30.732117192699999,3.5,
B0FFG9ICGE,永旺梦乐城武汉金桥,420000,湖北省,027,武汉市,420102,江岸区,购物服务;商场;购物中心,060101,金桥大道15号,114.284222,30.630993,114.278797358,30.6334186876,5.0,
B0FFG8AL1K,科技王大厦科技王商场,420000,湖北省,027,武汉市,420103,江汉区,购物服务;商场;商场,060100,水塔街办事处江汉四路1号,114.286003,30.582451,114.280581103,30.5848938667,3.5,
B0FFG8RC9X,威河平价购物中心,420000,湖北省,027,武汉市,420116,黄陂区,购物服务;商场;购物中心,060101,王家河镇前王公路,114.424345,30.960641,114.418788433,30.9627372913,,
B0FFG8XPTC,泛悦·南国中心一期购物中心,420000,湖北省,027,武汉市,420103,江汉区,购物服务;商场;购物中心,060101,解放大道1381号,114.281297,30.584925,114.275878456,30.5873725733,,
B0FFGDKV5P,蔡甸购物广场,420000,湖北省,027,武汉市,420114,蔡甸区,购物服务;商场;普通商场,060102,德氏B区附近,114.027242,30.582203,114.021571463,30.5845936941,4.0,
B0FFGERC6W,梦想城购物广场,420000,湖北省,027,武汉市,420115,江夏区,购物服务;商场;购物中心,060101,武商量贩旁,114.309371,30.348682,114.303941631,30.3511498934,,
B0FFG9VJRW,万福国际广场,420000,湖北省,027,武汉市,420105,汉阳区,购物服务;商场;普通商场,060102,鹦鹉大道530-3号,114.254183,30.521360,114.248773321,30.523847767,,17122.00
B0FFGBGLNB,武汉荟聚,420000,湖北省,027,武汉市,420104,硚口区,购物服务;商场;购物中心,060101,园博大道1号,114.167514,30.617138,114.161918854,30.6194899691,4.9,
B0FFGFTTKW,汉口北国际商品交易中心四期S区,420000,湖北省,027,武汉市,420116,黄陂区,购物服务;商场;购物中心,060101,西汉正街,114.326525,30.702748,114.321038173,30.705070753,,
B0FFG77MMG,武商众圆广场A名品馆,420000,湖北省,027,武汉市,420107,青山区,购物服务;商场;购物中心,060101,警胜路附近武商众圆广场,114.376612,30.626485,114.371065277,30.6287608865,,
B0FFGFSW1J,凯信后湖生活广场,420000,湖北省,027,武汉市,420102,江岸区,购物服务;商场;普通商场,060102,和谐大道与金桥大道交叉口西150米,114.294393,30.654537,114.288956682,30.6569387028,3.5,
B0FFG78ZR6,中城时代百尚购物广场,420000,湖北省,027,武汉市,420116,黄陂区,购物服务;商场;购物中心,060101,巨龙大道附近,114.287993,30.702516,114.28255899,30.7049045249,3.5,
B0FFGAL4VS,兴新街便民广场,420000,湖北省,027,武汉市,420115,江夏区,购物服务;商场;普通商场,060102,兴新街292号,114.31681060791016,30.346969604492187,114.31136322021484,30.349424362182617,,
B0FFGAGWWP,奥特莱斯傲墅,420000,湖北省,027,武汉市,420116,黄陂区,购物服务;商场;普通商场,060102,腾龙大道奥莱汇,114.261210,30.728513,114.255784587,30.7309128914,,23402.00
B0FFGGDTO4,单行道潮流百货,420000,湖北省,027,武汉市,420106,武昌区,购物服务;商场;普通商场,060102,黄鹤楼街办事处司门口解放路338号五环峰国际广场,114.298894,30.541537,114.29346218,30.543975933,3.0,
B0FFG4EN38,阳逻广场,420000,湖北省,027,武汉市,420117,新洲区,购物服务;商场;购物中心,060101,阳光大道389号,114.567572,30.663289,114.562480548,30.6658824518,,7946.00
B0FFGB0NB5,积玉桥万达广场,420000,湖北省,027,武汉市,420106,武昌区,购物服务;商场;购物中心,060101,积玉桥街道和平大道与健康路交叉路口往西约100米,114.311163,30.566089,114.305712283,30.5684984382,3.5,
B0FFG9IBWR,湖北云旅游客厅,420000,湖北省,027,武汉市,420106,武昌区,购物服务;商场;购物中心,060101,烟霞路1号,114.333611,30.560337,114.328124974,30.5627061827,3.5,
B0FFG87QDO,武汉天地壹方购物中心,420000,湖北省,027,武汉市,420102,江岸区,购物服务;商场;购物中心,060101,中山大道1515号,114.309889,30.609527,114.304436406,30.6119221438,4.9,
B0FFGCDO7Y,南国西汇,420000,湖北省,027,武汉市,420104,硚口区,购物服务;商场;购物中心,060101,解放大道367号2栋1单元,114.224008,30.585919000000001,114.218558836,30.588372480899999,,
B0FFG9YUVY,全球保税商品直销中心,420000,湖北省,027,武汉市,420112,东西湖区,购物服务;商场;购物中心,060101,东西湖大道4899号,114.037599,30.643843,114.031899889,30.6461817184,3.5,
B0FFGCBELS,武汉汉阳万达广场(装修中),420000,湖北省,027,武汉市,420105,汉阳区,购物服务;商场;购物中心|商务住宅;住宅区;住宅小区,060101|120302,四新大道608号,114.199788,30.531011,114.194290717,30.5334527441,,
B0FFGE6URB,万科广场,420000,湖北省,027,武汉市,420103,江汉区,购物服务;商场;购物中心,060101,常青一路218号,114.26199,30.623342,114.256573773,30.6257898881,4.9,
B0FFGADKX7,F座(新佳丽时尚广场店),420000,湖北省,027,武汉市,420103,江汉区,购物服务;商场;商场,060100,中山大道818号新佳丽时尚广场b1层,114.29187774658203,30.578901290893555,114.28645324707031,30.581338882446289,,
B0FFGDVGMD,兴怡生活广场,420000,湖北省,027,武汉市,420102,江岸区,购物服务;商场;购物中心|购物服务;商场;普通商场,060101|060102,兴业路312号,114.309991,30.644919,114.30453519,30.6472991545,3.0,
B0FFGE9OIE,U-LIFE,420000,湖北省,027,武汉市,420113,汉南区,购物服务;商场;免税品店,060103,兴七路与马影河大道交叉口西150米,114.087826,30.351150,114.082102814,30.3534972636,,
B0FFGEA3J6,乐都汇(石牌岭路),420000,湖北省,027,武汉市,420111,洪山区,购物服务;商场;购物中心|购物服务;服装鞋帽皮具店;服装鞋帽皮具店,060101|061100,雄楚大道与石牌岭路交汇处,114.335908,30.516469,114.330422053,30.518848465,3.5,
B0FFGBV2ND,海天欢乐购,420000,湖北省,027,武汉市,420105,汉阳区,购物服务;商场;购物中心|购物服务;便民商店/便利店;便民商店/便利店,060101|060200,汉阳大道698号,114.21138763427734,30.562873840332031,114.20591735839844,30.56532096862793,4.8,
B0FFGFTTQ1,汉口北国际商品交易中心四期T区,420000,湖北省,027,武汉市,420116,黄陂区,购物服务;商场;购物中心,060101,东汉正街,114.32762145996094,30.705049514770508,114.32212829589844,30.707368850708008,,
B0FFGFR741,汉口城市广场C区,420000,湖北省,027,武汉市,420102,江岸区,购物服务;商场;购物中心,060101,后湖大道,114.307199,30.652203,114.301746589,30.6545849023,,
B0FFGFQR3O,金银潭广场,420000,湖北省,027,武汉市,420112,东西湖区,购物服务;商场;普通商场,060102,东康居五路18号,114.243173,30.64986,114.237744488,30.6522986752,5.0,
B0FFGCBAQ0,健吾假日广场,420000,湖北省,027,武汉市,420107,青山区,购物服务;商场;普通商场,060102,冶金大道与工业一路交叉口北150米,114.391988,30.632476,114.386435277,30.6347379227,3.5,
B0FFGFRN8Y,汉口城市广场A区,420000,湖北省,027,武汉市,420102,江岸区,购物服务;商场;普通商场,060102,后湖大道111号汉口城市广场购物中心,114.305435,30.65153,114.299985118,30.6539152535,,
B0FFGD09U6,中百百货,420000,湖北省,027,武汉市,420112,东西湖区,购物服务;商场;普通商场,060102,田园大道108号,114.134284,30.61998,114.128599454,30.6222750419,5.0,
B0FFGL9NRX,世茂52+,420000,湖北省,027,武汉市,420105,汉阳区,购物服务;商场;购物中心,060101,滨江大道188号,114.273507,30.538456,114.268096544,30.5409279568,3.0,
B0FFGFS4LD,汉口北国际商品交易中心日用品城,420000,湖北省,027,武汉市,420116,黄陂区,购物服务;商场;普通商场,060102,汉口北国际商品交易中心F1区,114.318282,30.701397,114.312808594,30.703736058899999,,
B0FFGHANGO,悦荟,420000,湖北省,027,武汉市,420103,江汉区,购物服务;商场;购物中心|购物服务;商场;普通商场,060101|060102,水塔街办事处中山大道新佳丽广场五楼,114.291704,30.577673999999998,114.286277188,30.5801109772,5.0,
B0FFGM2FX9,武汉国际广场,420000,湖北省,027,武汉市,420104,硚口区,购物服务;商场;购物中心,060101,解放大道586号,114.256147,30.577227,114.250733333,30.5796951168,,
B0FFGILAC4,万汇MALL,420000,湖北省,027,武汉市,420115,江夏区,购物服务;商场;普通商场,060102,文化大道3号,114.320899,30.374292,114.315449724,30.3767344739,3.5,
B0FFGNHNPQ,北冰洋购物中心,420000,湖北省,027,武汉市,420112,东西湖区,购物服务;商场;购物中心,060101,南湖大队龙腾奶牛厂旁,114.142583,30.622475000000001,114.136918369,30.624781043300001,3.5,
B0FFGOTA3I,南国西汇城市广场2期,420000,湖北省,027,武汉市,420104,硚口区,购物服务;商场;购物中心,060101,解放大道387号,114.22271600000001,30.585467000000001,114.217264566,30.587919424100001,3.0,
B0FFGNI5Y8,晟世·芳草地,420000,湖北省,027,武汉市,420106,武昌区,购物服务;商场;普通商场,060102,解放路389号,114.298194,30.542572,114.292762944,30.545011692799999,,
B0FFGJ7Q0T,关谷广场商贸城,420000,湖北省,027,武汉市,420111,洪山区,购物服务;商场;商场,060100,软件园东路1号,114.405146,30.474536000000001,114.399610985,30.476850733500001,,
B0FFGLNE3C,乐天城购物中心,420000,湖北省,027,武汉市,420111,洪山区,购物服务;商场;购物中心,060101,街道口珞瑜路4号乐天城负1层,114.35441589355469,30.525489807128906,114.34889984130859,30.52783203125,4.0,
B0FFGQ52CX,盛惠·中原里,420000,湖北省,027,武汉市,420104,硚口区,购物服务;商场;普通商场,060102,长丰大道与丰华路交汇处,114.208751,30.60779,114.203268805,30.6102171705,3.0,
B0FFGWJDTD,时代广场,420000,湖北省,027,武汉市,420105,汉阳区,购物服务;商场;普通商场,060102,十升二路与G318交叉路口往东南约100米,114.206292,30.551484,114.200808945,30.5539287396,,
B0FFGOC2VB,长丰街华生汉口城市广场,420000,湖北省,027,武汉市,420104,硚口区,购物服务;商场;商场,060100,长丰街道,114.206396,30.612106,114.200907933,30.6145281075,3.5,
B0FFGOBHN7,武汉自贸城,420000,湖北省,027,武汉市,420112,东西湖区,购物服务;商场;购物中心,060101,高桥二路特1号,114.049768,30.62874,114.044047691,30.6310574226,5.0,
B0FFGQFI73,龙腾第一大道蓝宝石座,420000,湖北省,027,武汉市,420104,硚口区,商务住宅;楼宇;商务写字楼|购物服务;商场;普通商场,120201|060102,多福路3号,114.276853,30.564633000000001,114.271438824,30.5670927675,,
B0FFGLJYFJ,驴妈妈旅游网江夏联投广场门市(万汇mall店),420000,湖北省,027,武汉市,420115,江夏区,购物服务;商场;商场|生活服务;生活服务场所;生活服务场所,060100|070000,文化大道3号联投广场万汇mall商场1层,114.320938,30.374305,114.315488661,30.376747397799999,,
B0FFGXXJPH,红T时尚楼,420000,湖北省,027,武汉市,420103,江汉区,购物服务;商场;普通商场,060102,江汉经济开发区江旺路8号爱帝产业园,114.235741,30.622235,114.230306579,30.6246826063,,
B0FFGSGW3C,2358韩国休闲百货,420000,湖北省,027,武汉市,420106,武昌区,购物服务;商场;商场,060100,民主路天桥正下方(美特斯邦威武汉旗舰店),114.299850,30.546221,114.29441659,30.5486568133,3.5,
B0FFGXXV1R,朗汇68,420000,湖北省,027,武汉市,420106,武昌区,购物服务;商场;普通商场,060102,武珞路518号,114.33262,30.532855,114.327137974,30.5352354633,4.0,
B0FFGXXV61,尚街购物中心,420000,湖北省,027,武汉市,420114,蔡甸区,购物服务;商场;购物中心,060101,汉阳大道3545号工厂恒大绿洲小区,114.124964,30.547638,114.119265904,30.5499491602,,
B0FFGQ3M68,武汉凯德西城广场,420000,湖北省,027,武汉市,420104,硚口区,购物服务;商场;普通商场,060102,解放大道26-2号附近,114.19334499999999,30.597573000000001,114.187825055,30.5999802121,,16940.00
B0FFGL1P49,多福商城,420000,湖北省,027,武汉市,420104,硚口区,购物服务;商场;普通商场,060102,多福路117号,114.27661895751953,30.569761276245117,114.27120208740234,30.572219848632813,3.5,
B0FFH0U4HQ,名流城市商业广场A座,420000,湖北省,027,武汉市,420116,黄陂区,购物服务;商场;普通商场,060102,巨龙大道88号名流城市商业广场,114.27529907226562,30.709135055541992,114.26986694335937,30.71153450012207,,
B0FFGU22SA,东澜岸·3号楼,420000,湖北省,027,武汉市,420111,洪山区,购物服务;商场;普通商场,060102,东澜岸3号楼,114.263367,30.431754,114.257967339,30.4342629882,,
B0FFH1G6OC,武汉摩尔城B馆(武汉摩尔城店),420000,湖北省,027,武汉市,420105,汉阳区,购物服务;商场;商场,060100,王家湾龙阳大道特6号,114.208103,30.559049,114.202623536,30.561493665,,
B0FFGLOQFF,中商平价(光谷店),420000,湖北省,027,武汉市,420111,洪山区,购物服务;商场;购物中心,060101,珞瑜路456号光谷国际写字楼1-3层,114.430572,30.504793,114.425066334,30.5071167142,4.5,
B0FFGWLEXR,人信汇B座,420000,湖北省,027,武汉市,420105,汉阳区,购物服务;商场;购物中心,060101,龙阳大道58号,114.20510864257812,30.552143096923828,114.19961547851562,30.554586410522461,,
B0FFGX4X89,暨济商城(华贸二号楼南),420000,湖北省,027,武汉市,420104,硚口区,购物服务;商场;普通商场,060102,沿河大道190号,114.27516,30.564074999999999,114.26974667099999,30.566536590999998,,
B0FFH4514V,C2时尚广场C6号楼,420000,湖北省,027,武汉市,420102,江岸区,购物服务;商场;普通商场,060102,C2时尚广场(东部汉口购物公园),114.316753,30.622805,114.311288829,30.6251821761,,
B0FFGWJ6VW,东风·新城商业广场,420000,湖北省,027,武汉市,420114,蔡甸区,购物服务;商场;普通商场,060102,联城路25号,114.15712,30.492578,114.151505988,30.4949542998,3.5,
B0FFGWLVEZ,人信汇A座,420000,湖北省,027,武汉市,420105,汉阳区,购物服务;商场;购物中心,060101,龙阳大道59号,114.20437622070312,30.550943374633789,114.19889068603516,30.553386688232422,,
B0FFH0U4H8,名流城市商业广场B座,420000,湖北省,027,武汉市,420116,黄陂区,购物服务;商场;普通商场,060102,巨龙大道88号名流城市商业广场,114.27414899999999,30.709213999999999,114.268723572,30.711614750700001,,
B0FFGSXPYZ,武汉光谷广场店,420000,湖北省,027,武汉市,420111,洪山区,购物服务;商场;商场,060100,汉庭酒店珞瑜路560号(吴家湾大厦1楼),114.389526,30.512321,114.38398398,30.5146281802,,
B0FFH1APSW,武商MALL 国广C座,420000,湖北省,027,武汉市,420103,江汉区,购物服务;商场;购物中心,060101,解放大道690号,114.271648,30.578972,114.266234682,30.5814311974,5.0,
B0FFH0UAH0,天紫广场,420000,湖北省,027,武汉市,420106,武昌区,购物服务;商场;普通商场,060102,,114.33233642578125,30.538230895996094,114.32685089111328,30.540609359741211,4.0,
B0FFH5H590,Jin Yin Tan Plaza,420000,湖北省,027,武汉市,420112,东西湖区,购物服务;商场;普通商场,060102,康居五路2号附近,114.243323,30.650042,114.237894614,30.6524806316,,
B0FFH0WF8L,世纪中商百货,420000,湖北省,027,武汉市,420106,武昌区,购物服务;商场;普通商场,060102,中南路9号,114.33164215087891,30.536794662475586,114.32615661621094,30.539175033569336,,
B0FFH19WWK,东部购物公园C4栋,420000,湖北省,027,武汉市,420102,江岸区,购物服务;商场;普通商场,060102,C2时尚广场(东部汉口购物公园),114.317192,30.623979,114.311727039,30.6263548699,,
B0FFH1ED1W,百联奥特莱斯广场-C区1号,420000,湖北省,027,武汉市,420116,黄陂区,购物服务;商场;商场,060100,百联奥特莱斯广场东区,114.259055,30.730829,114.253628967,30.7332285841,,
B0FFH1PRH6,百联奥特莱斯广场-D区9号,420000,湖北省,027,武汉市,420116,黄陂区,购物服务;商场;商场,060100,腾龙大道东200米,114.255695,30.731807,114.250267818,30.734207078499999,,
B0FFH2DXUY,宝帝购物中心,420000,湖北省,027,武汉市,420117,新洲区,购物服务;商场;普通商场|购物服务;超级市场;超市,060102|060400,新洲大街66号,114.798418,30.843851000000001,114.793184548,30.846224781699998,3.5,
B0FFH7J5BT,武汉自贸城进口商品直销中心,420000,湖北省,027,武汉市,420112,东西湖区,购物服务;商场;免税品店,060103,万国街与高桥二路交叉口西北150米,114.052262,30.629470,114.046537726,30.6317820568,,
B0FFGWMA0A,星汇维港购物中心B馆,420000,湖北省,027,武汉市,420104,硚口区,购物服务;商场;购物中心,060101,月湖桥与硚口路交叉口西南150米,114.250749,30.570575999999999,114.24533325199999,30.5730473506,,
B0FFGXM7CR,佰惠生活广场,420000,湖北省,027,武汉市,420106,武昌区,购物服务;商场;普通商场,060102,静安路6号,114.32041931152344,30.521965026855469,114.31495666503906,30.524372100830078,3.5,
B0FFGZJV6S,齐乐城时尚广场,420000,湖北省,027,武汉市,420115,江夏区,购物服务;商场;普通商场,060102,纸坊街育才社区江夏大道谢家湾公路新区1号楼1-1,114.331816,30.359093000000001,114.32635030100001,30.361517172399999,,
B0FFH49OXI,季佳·里纸坊,420000,湖北省,027,武汉市,420115,江夏区,购物服务;商场;普通商场,060102,西交路66号,114.309462,30.348534,114.304032511,30.3510017539,,
B0FFH1PYF9,C立方·时尚汇,420000,湖北省,027,武汉市,420102,江岸区,购物服务;商场;购物中心,060101,大智街街道京汉大道852号世纪大厦3层,114.286857,30.584934,114.281434159,30.5873748354,3.5,
B0FFH1VC4B,丽红购物广场,420000,湖北省,027,武汉市,420107,青山区,购物服务;商场;普通商场,060102,康美路附近,114.48592,30.606942,114.480571003,30.6093538966,4.5,
B0FFH48CA0,武汉印象城,420000,湖北省,027,武汉市,420107,青山区,购物服务;商场;购物中心,060101,和平大道1278号,114.390023,30.632005,114.384470443,30.6342680717,4.8,
B0FFGX3KNI,流行前线(和平路店),420000,湖北省,027,武汉市,420105,汉阳区,购物服务;商场;商场|生活服务;美容美发店;美容美发店,060100|071100,汉阳火车站和平新村6栋1-17号,114.256217,30.551390,114.250805581,30.5538673771,3.0,
B0FFHCWOWJ,购物公园,420000,湖北省,027,武汉市,420115,江夏区,购物服务;商场;普通商场,060102,高新技术开发区大学园路2号万科城市花园内,114.409387,30.459139,114.403856395,30.4614586981,3.0,
B0FFH4WWX2,季佳·荟华林广场,420000,湖北省,027,武汉市,420102,江岸区,购物服务;商场;购物中心,060101,百步亭路与后湖大道交汇处,114.324497,30.65611,114.319017543,30.6584582384,4.0,
B0FFHAHZUQ,经发进口商品交易中心,420000,湖北省,027,武汉市,420114,蔡甸区,购物服务;商场;普通商场|购物服务;商场;免税品店,060102|060103,创业路附近,114.15190887451172,30.476070404052734,114.14627838134766,30.478443145751953,3.0,
B0FFHCCRH5,泛悦城市广场,420000,湖北省,027,武汉市,420104,硚口区,购物服务;商场;购物中心,060101,解放大道201号,114.223178,30.584257000000001,114.217727504,30.586710328100001,,
B0FFHCSWST,厂前启发百货商店,420000,湖北省,027,武汉市,420107,青山区,购物服务;商场;商场,060100,丽红购物广场(站前路)青山厂,114.437510,30.609860,114.432009477,30.6121564723,,
B0FFHC4CPV,虎泉时尚中心,420000,湖北省,027,武汉市,420111,洪山区,购物服务;商场;购物中心,060101,虎泉街91号,114.369996,30.513569,114.364464419,30.515893553,3.5,
B0FFH9TKLI,幸福食客(幸福时代百货广场),420000,湖北省,027,武汉市,420117,新洲区,购物服务;商场;商场,060100,龙腾大道与古城大道交界处幸福时代百货广场一楼,114.799948,30.826669,114.794718718,30.8290548377,,
B0FFHEWWXZ,武汉首创奥特莱斯,420000,湖北省,027,武汉市,420115,江夏区,购物服务;商场;购物中心,060101,高新二路附近,114.461443,30.477419,114.456019326,30.4798083348,4.3,
B0FFHCA4WC,鸿达中央广场,420000,湖北省,027,武汉市,420112,东西湖区,购物服务;商场;普通商场|商务住宅;楼宇;商务写字楼,060102|120201,五环大道68号,114.138689,30.618653,114.133015015,30.620954757,,14729.00
B0FFHCPW4E,汉口城市广场E区,420000,湖北省,027,武汉市,420102,江岸区,购物服务;商场;购物中心,060101,后湖大道111号,114.31073,30.653357,114.305272368,30.6557321348,,
B0FFHCRQMY,天立枭鹏广场,420000,湖北省,027,武汉市,420111,洪山区,购物服务;商场;普通商场,060102,东湖风景区落雁路先锋村,114.430713,30.586278,114.425200502,30.5885741296,3.5,
B0FFH425WF,东部购物公园C3栋,420000,湖北省,027,武汉市,420102,江岸区,购物服务;商场;普通商场,060102,东部汉口购物公园,114.316750,30.624090,114.311285723,30.6264666484,,
B0FFH4AAU2,百联奥特莱斯广场-C区13号,420000,湖北省,027,武汉市,420116,黄陂区,购物服务;商场;商场,060100,盘龙大道51-14号楼附近,114.257244,30.730905,114.25181745,30.733305130200002,,
B0FFHF1JEF,银泰创意城,420000,湖北省,027,武汉市,420111,洪山区,购物服务;商场;购物中心,060101,珞喻路35号,114.356574,30.526436,114.351056344,30.5287756996,5.0,
B0FFHOSG91,青山健吾假日广场B座,420000,湖北省,027,武汉市,420107,青山区,购物服务;商场;普通商场,060102,冶金大道与工业一路交叉口北150米,114.39212000000001,30.631913999999998,114.386567325,30.6341761023,,
B0FFHH7K3J,建新商贸城,420000,湖北省,027,武汉市,420114,蔡甸区,购物服务;商场;普通商场,060102,汉阳大街600号,114.031826,30.578593,114.026145173,30.5809727557,,
B0FFHIKMQ0,武汉国际广场B,420000,湖北省,027,武汉市,420103,江汉区,购物服务;商场;购物中心,060101,解放大道557号(武广正对面),114.270673,30.580935,114.26525978399999,30.583394237499999,,
B0FFHJEXLZ,美联奥园生活广场,420000,湖北省,027,武汉市,420112,东西湖区,购物服务;商场;购物中心,060101,将军路街道东美联·奥林匹克花园,114.238984,30.653174,114.233550823,30.655609866,,
B0FFHBVTHM,武汉保利广场,420000,湖北省,027,武汉市,420111,洪山区,购物服务;商场;购物中心,060101,关山大道330号,114.41038513183594,30.490945816040039,114.40485382080078,30.493257522583008,5.0,
B0FFHBLQMX,武汉自贸城全球商品采购中心,420000,湖北省,027,武汉市,420112,东西湖区,购物服务;商场;免税品店,060103,万国街与高桥二路交叉口西北150米,114.052501,30.629352,114.046776376,30.6316636335,,
B0FFHJXC6Z,界立方3,420000,湖北省,027,武汉市,420106,武昌区,购物服务;商场;商场,060100,解放路363-365号,114.298307,30.541553,114.292875895,30.5439928582,,
B0FFHROPJP,联投广场-营销中心,420000,湖北省,027,武汉市,420115,江夏区,公司企业;公司;公司|购物服务;商场;商场|生活服务;生活服务场所;生活服务场所,170200|060100|070000,文化大道3号,114.320875,30.374276999999999,114.315425764,30.376719521999998,,
B0FFH89CGS,欧镇奥特莱斯,420000,湖北省,027,武汉市,420113,汉南区,购物服务;商场;商场,060100,[],114.063619,30.335755,114.057906528,30.3381288821,3.5,
B0FFHI85LP,万嘉广场,420000,湖北省,027,武汉市,420104,硚口区,购物服务;商场;普通商场,060102,古田路57号(近古画路),114.195036,30.591598,114.189521093,30.5940103967,3.5,
B0FFHQ70S2,汉口城市广场D区,420000,湖北省,027,武汉市,420102,江岸区,购物服务;商场;购物中心,060101,后湖大道汉口城市广场购物中心,114.309355,30.652832,114.303899434,30.655209825,,
B0FFHIUBYW,妙邻广场,420000,湖北省,027,武汉市,420103,江汉区,购物服务;商场;普通商场,060102,常青五路46号附近,114.258390,30.630040,114.252972504,30.6324865242,,
B0FFHFQ7YM,武商量贩(武泰闸店),420000,湖北省,027,武汉市,420106,武昌区,购物服务;商场;普通商场|购物服务;超级市场;超市,060102|060400,白沙洲大道404号武汉万隆广场,114.302572,30.519323,114.297137409,30.5217631777,4.0,
B0FFHLDOTP,泛悦汇商业广场,420000,湖北省,027,武汉市,420106,武昌区,购物服务;商场;普通商场,060102,粮道街办事处(湖北中医药大学昙华林校区东北),114.315975,30.5519,114.310518185,30.5543056487,4.5,
B0FFHIR3UC,季佳·里美好广场,420000,湖北省,027,武汉市,420105,汉阳区,购物服务;商场;普通商场|购物服务;商场;购物中心,060102|060101,马鹦路与马沧湖路交汇处东南,114.248298,30.538927,114.242883338,30.5414094103,3.5,
B0FFHP5NZC,M+购物中心,420000,湖北省,027,武汉市,420103,江汉区,购物服务;商场;购物中心|购物服务;商场;普通商场,060101|060102,武汉江汉路步行街与京汉大道交汇处,114.286301,30.583568,114.280878755,30.5860100663,4.5,
B0FFHOAG2J,南国西汇城市广场1期,420000,湖北省,027,武汉市,420104,硚口区,购物服务;商场;购物中心,060101,解放大道201号,114.223163,30.584226999999998,114.21771248,30.586680325100001,,
B0FFHNQM7Y,世茂·天街,420000,湖北省,027,武汉市,420111,洪山区,购物服务;商场;商场,060100,文化大道武汉世茂林屿岸西北侧约50米,114.317994,30.449358,114.312542877,30.4517902511,,
B0FFHM6D2X,静安广场,420000,湖北省,027,武汉市,420106,武昌区,购物服务;商场;商场,060100,静安路6-5-5号附近,114.320581,30.522034999999999,114.315119495,30.524441933399999,,
B0FFHTYBQQ,洪福添美广场,420000,湖北省,027,武汉市,420111,洪山区,购物服务;商场;普通商场,060102,雄楚大道938号,114.398645,30.497479,114.393105015,30.499787404,,
B0FFHRI4K3,丽红广场,420000,湖北省,027,武汉市,420107,青山区,购物服务;商场;普通商场,060102,康美路北50米,114.486415,30.606864,114.481067864,30.6092773775,,
B0FFHSDYWN,TOPVALU COLLECTION(永旺梦乐城店),420000,湖北省,027,武汉市,420112,东西湖区,购物服务;商场;免税品店,060103,金银潭大道1号武汉永旺梦乐城2层,114.237903,30.650393,114.232468809,30.6528296353,,
B0FFHS84RA,和洋购物广场,420000,湖北省,027,武汉市,420116,黄陂区,购物服务;商场;购物中心,060101,胜海大道1号,114.418146,30.731529,114.412600773,30.7337481014,,
B0FFHLP36K,皇后公园,420000,湖北省,027,武汉市,420111,洪山区,购物服务;商场;购物中心,060101,卓刀泉路238号(地铁2号线杨家湾站B出口旁),114.383451,30.504556,114.377911268,30.5068695704,,
B0FFHWXLAC,万利生活广场,420000,湖北省,027,武汉市,420111,洪山区,购物服务;商场;普通商场|商务住宅;楼宇;商务写字楼,060102|120201,友谊大道508号,114.346489,30.59238,114.340979846,30.5947134426,,22479.00
B0FFHM4Z8X,阳光购物中心,420000,湖北省,027,武汉市,420117,新洲区,购物服务;商场;购物中心,060101,037乡道与111省道交叉口西150米,114.659278,30.740552999999998,114.654140828,30.743061361300001,,
B0FFHU99YT,鹤来商场,420000,湖北省,027,武汉市,420106,武昌区,购物服务;商场;普通商场,060102,[],114.299868,30.54315,114.294434832,30.5455868281,3.5,
B0FFI6L6XP,玛桥西商厦,420000,湖北省,027,武汉市,420103,江汉区,购物服务;商场;商场,060100,满春街办事处中山大道658号六渡桥桥,114.2842,30.57469,114.278780231,30.5771380001,,
B0FFI0JMMV,南国大武汉3期西汇广场,420000,湖北省,027,武汉市,420104,硚口区,购物服务;商场;购物中心,060101,解放大道367号,114.22269439697266,30.585643768310547,114.21723937988281,30.588094711303711,,
B0FFI9BJV3,武汉东西湖万达广场,420000,湖北省,027,武汉市,420112,东西湖区,购物服务;商场;购物中心,060101,金山大道1239号,114.177202,30.637673,114.171633198,30.6400346115,4.0,
B0FFI1R5S2,龙岭·818广场,420000,湖北省,027,武汉市,420111,洪山区,购物服务;商场;普通商场,060102,洛南街洪达巷龙岭广场负一楼,114.342313,30.520058,114.336816545,30.5224243923,,
B0FFI1RN2I,WU SHANG GROUP ASIA TRADE PLAZA,420000,湖北省,027,武汉市,420106,武昌区,购物服务;商场;普通商场,060102,武珞路616号附近,114.342147,30.529780,114.33664996,30.5321435824,,
B0FFI221W3,阳光100大湖第A区,420000,湖北省,027,武汉市,420115,江夏区,购物服务;商场;购物中心,060101,汤逊湖畔杨桥湖大道2号,114.412061,30.401961,114.406537768,30.404294677,,
B0FFHOZ52R,恒隆广场(建设中),420000,湖北省,027,武汉市,420104,硚口区,购物服务;商场;购物中心|购物服务;商场;普通商场,060101|060102,京汉大道,114.2738037109375,30.577835083007813,114.26838684082031,30.580293655395508,,
B0FFIA43FL,司隆广场,420000,湖北省,027,武汉市,420106,武昌区,购物服务;商场;普通商场,060102,解放路257号(音乐学院旁),114.297325,30.538059,114.291895374,30.5405015691,3.5,
B0FFI2U918,武汉K11Select,420000,湖北省,027,武汉市,420111,洪山区,购物服务;商场;购物中心,060101,[],114.41289,30.493297,114.407359636,30.4956087788,5.0,
B0FFHRUE12,潮流百货,420000,湖北省,027,武汉市,420106,武昌区,购物服务;商场;普通商场,060102,解放路司门口375号,114.298597,30.541445,114.293165551,30.543884435799999,,
B0FFI28VJ3,红星美凯龙红霞商场,420000,湖北省,027,武汉市,420111,洪山区,购物服务;商场;普通商场|购物服务;家居建材市场;家具城,060102|060602,白沙洲大道二号,114.262693,30.415119,114.257294716,30.4176319871,3.5,
B0FFIKXHUB,武汉恒隆广场,420000,湖北省,027,武汉市,420104,硚口区,购物服务;商场;购物中心,060101,京汉大道668号,114.273801,30.577836,114.268387046,30.5802937943,4.5,
B0FFI2UK92,印象城,420000,湖北省,027,武汉市,420103,江汉区,购物服务;商场;购物中心,060101,民生路163号,114.29066467285156,30.576833724975586,114.28523254394531,30.579273223876953,,
B0FFI0K1R3,永旺梦乐城A馆,420000,湖北省,027,武汉市,420105,汉阳区,购物服务;商场;购物中心,060101,四新地区管委会江城大道388号,114.20630645751953,30.505102157592773,114.20082092285156,30.507562637329102,,
B0FFI7V0MH,泛悦Mall(南湖店),420000,湖北省,027,武汉市,420106,武昌区,购物服务;商场;普通商场,060102,丁字桥南路518号,114.324907,30.505357,114.319439953,30.5077608613,5.0,
B0FFHUKBNT,同安里,420000,湖北省,027,武汉市,420104,硚口区,购物服务;商场;普通商场|购物服务;服装鞋帽皮具店;服装鞋帽皮具店,060102|061100,全新街与大夹街交叉口西50米,114.27803802490234,30.56787109375,114.27262115478516,30.570327758789063,,
B0FFHUKBF5,金正茂中国服装商贸城B区,420000,湖北省,027,武汉市,420104,硚口区,购物服务;商场;普通商场,060102,大夹街,114.28055572509766,30.567678451538086,114.27513885498047,30.570133209228516,,
B0FFI0VQZK,Cute House,420000,湖北省,027,武汉市,420106,武昌区,购物服务;商场;免税品店,060103,松竹路28号万达SOHO环球国际中心A座,114.339000,30.557732,114.333505503,30.5600919369,,
B0FFIPLCGJ,雅娜购香港启德免税展示中心,420000,湖北省,027,武汉市,420117,新洲区,购物服务;商场;免税品店,060103,阳逻港园区综合服务楼1层,114.553754,30.679034,114.548631798,30.6815978221,3.5,
B0FFI1ZU46,泛悦Mall(西汇店),420000,湖北省,027,武汉市,420104,硚口区,购物服务;商场;购物中心,060101,解放大道宗关1号南国西汇,114.22290802001953,30.585023880004883,114.21746063232422,30.58747673034668,4.5,
B0FFI2WD3L,地下商场,420000,湖北省,027,武汉市,420111,洪山区,购物服务;商场;普通商场,060102,广八路与珞喻路交叉口西北50米,114.362098,30.524301,114.356573706,30.5266329093,,
B0FFILVYB0,嘉园·印象里广场,420000,湖北省,027,武汉市,420111,洪山区,购物服务;商场;普通商场,060102,光谷一路万科嘉园内,114.445444,30.499789,114.439972112,30.5021375421,4.0,
B0FFIAGGHW,易发购物中心,420000,湖北省,027,武汉市,420117,新洲区,购物服务;商场;购物中心,060101,阳逻街,114.56268,30.658867999999998,114.557579559,30.661456383200001,3.0,
B0FFIS0IFO,新禧莲中商美食购物广场,420000,湖北省,027,武汉市,420106,武昌区,购物服务;商场;普通商场,060102,首义路街街道武昌火车站公交综合体二楼新禧莲,114.317634,30.530554,114.312176436,30.5329637392,2.8,
B0FFIBW7QO,闵东商业城,420000,湖北省,027,武汉市,420105,汉阳区,购物服务;商场;商场,060100,翠微街办事处钟家村,114.265419,30.550571,114.260009168,30.5530447819,,
B0FFIJ2DQQ,武汉·金银湖广场,420000,湖北省,027,武汉市,420112,东西湖区,购物服务;商场;普通商场,060102,金银湖路9号金盛国际家居武汉金银湖广场,114.20317840576172,30.631759643554688,114.19767761230469,30.63416862487793,,
B0FFIK89CR,未来城购物公园,420000,湖北省,027,武汉市,420111,洪山区,购物服务;商场;普通商场,060102,珞狮南路147号一楼服务台,114.35305200000001,30.524460000000001,114.34753925699999,30.526806092899999,,
B0FFIDWNLI,新崇光时尚广场B座,420000,湖北省,027,武汉市,420103,江汉区,购物服务;商场;普通商场|商务住宅;楼宇;商务写字楼,060102|120201,解放大道与武展东路交叉口东南方向80米,114.274266,30.581477,114.26885155,30.5839330175,,
B0FFIDW34C,人信·武胜里购物中心,420000,湖北省,027,武汉市,420104,硚口区,购物服务;商场;购物中心,060101,武胜路人信武胜里负一楼,114.267174,30.572527,114.261762151,30.5749918639,3.5,
B0FFIAC8YI,红坊里·众诚汇,420000,湖北省,027,武汉市,420107,青山区,购物服务;商场;普通商场,060102,建设四路9号,114.384661,30.628229,114.379109997,30.6304970401,4.0,
B0FFIT9QWB,狮城汇,420000,湖北省,027,武汉市,420111,洪山区,购物服务;商场;普通商场,060102,珞狮路451号狮城翰园商场1-4层,114.349227,30.508143,114.343721118,30.5105007054,3.8,
B0FFIDV0LJ,云尚国际时尚中心,420000,湖北省,027,武汉市,420104,硚口区,购物服务;商场;商场,060100,中山大道388号,114.27817,30.57138,114.272754545,30.5738359928,4.5,
B0FFI6EWN3,龙村淘宝店,420000,湖北省,027,武汉市,420117,新洲区,购物服务;商场;免税品店,060103,龙王咀农场,114.672069,30.594202,114.666917426,30.5967523244,,
B0FFIBCDO9,泛悦汇,420000,湖北省,027,武汉市,420106,武昌区,购物服务;商场;普通商场,060102,张之洞路151号(紫阳湖公园对面),114.304399,30.535418,114.298960576,30.5378499084,,
B0FFJ2U73E,MSCSOFTWARE,420000,湖北省,027,武汉市,420115,江夏区,购物服务;商场;免税品店,060103,东湖新技术开发区光谷大道金融港B15栋9楼,114.426721,30.454029,114.421212821,30.4563621593,,
B0FFINIB5C,武汉ZAMA荟(建设中),420000,湖北省,027,武汉市,420102,江岸区,购物服务;商场;购物中心,060101,金桥大道与井南路交汇处,114.294358,30.654573,114.288921717,30.656974739,,
B0FFIPT7XC,德成生活中心,420000,湖北省,027,武汉市,420116,黄陂区,购物服务;商场;普通商场|购物服务;商场;购物中心|商务住宅;商务住宅相关;商务住宅相关,060102|060101|120000,盘龙城经济开发区巨龙大道39号盘龙广场,114.288863,30.702004,114.283428232,30.7043916092,,
B0FFIN7DP6,1992全球购(盛兴街店),420000,湖北省,027,武汉市,420114,蔡甸区,购物服务;商场;免税品店,060103,武汉振业国际酒店后门1992,114.038701,30.570347,114.033006153,30.5727123711,,
B0FFIMUHO1,悦活里生活广场,420000,湖北省,027,武汉市,420111,洪山区,购物服务;商场;普通商场,060102,狮子山街南湖大道48号芷岸龙庭超市1-3层,114.335097,30.480067,114.32961552,30.4824586958,,
B0FFIN7GJC,武商建二商场,420000,湖北省,027,武汉市,420107,青山区,购物服务;商场;普通商场,060102,和平大道955号,114.375620,30.624796,114.370074113,30.6270736278,,
B0FFIOQLME,万达百货(经开店),420000,湖北省,027,武汉市,420114,蔡甸区,购物服务;商场;普通商场,060102,东风大道111号,114.173768,30.506917000000001,114.168200689,30.5093200357,4.0,
B0FFI221W2,阳光100大湖第B区,420000,湖北省,027,武汉市,420115,江夏区,购物服务;商场;购物中心,060101,汤逊湖畔杨桥湖大道2号,114.412699,30.402547,114.407176343,30.404880845,,
B0FFIZTO9S,泉州铭德物流有限公司汉口北分公司,420000,湖北省,027,武汉市,420116,黄陂区,购物服务;商场;普通商场|生活服务;物流速递;物流速递,060102|070500,汉口北商贸物流枢纽区管委会汉口北大道汉口北货运站,114.323923,30.700635,114.3184406,30.7029637415,,
B0FFINC82M,恒大城市广场,420000,湖北省,027,武汉市,420112,东西湖区,购物服务;商场;普通商场|购物服务;商场;购物中心,060102|060101,环湖中路43号,114.171791,30.661503,114.166204392,30.6638439883,3.5,
B0FFJ6R02N,潮流广场(罗马春天奥特莱斯店),420000,湖北省,027,武汉市,420115,江夏区,购物服务;商场;普通商场,060102,江夏区经济开发区庙山街道江夏大道邬树村18号罗马春天奥特莱斯,114.370247,30.386492,114.364726246,30.3888475467,,
B0FFJ4FWOX,光谷天地2期,420000,湖北省,027,武汉市,420111,洪山区,购物服务;商场;购物中心,060101,关东街道关南园一路比心动物医院旁,114.415396,30.474202,114.409869983,30.4765204332,3.5,
B0FFIMG2HM,圣龙国际广场,420000,湖北省,027,武汉市,420114,蔡甸区,购物服务;商场;购物中心|商务住宅;楼宇;商务写字楼,060101|120201,东风大道与神龙大道交汇处(金凯中百仓储正对面),114.1604,30.495426,114.154795038,30.4978074366,,8380.00
B0FFIKTHPA,汇和城,420000,湖北省,027,武汉市,420112,东西湖区,购物服务;商场;购物中心|购物服务;商场;普通商场,060101|060102,常青花园新区街道管理委员会常青花园地铁站,114.242323,30.640881,114.23689443799999,30.643323356100002,,
B0FFIATVFO,松时代,420000,湖北省,027,武汉市,420104,硚口区,购物服务;商场;普通商场,060102,汉西二路61号香江家居品牌工厂批发城F3,114.222769,30.599293,114.217316467,30.601740138,,
B0FFJ10F10,金地广场,420000,湖北省,027,武汉市,420111,洪山区,购物服务;商场;购物中心,060101,团结大道与仁和路交汇处,114.384202,30.603715,114.378653309,30.6059933879,5.0,
B0FFJ2YDZU,酒店用品城2期,420000,湖北省,027,武汉市,420116,黄陂区,购物服务;商场;普通商场,060102,汉口北商贸物流枢纽区管委会酒店用品,114.316781,30.702523,114.311309859,30.7048643244,,
B0FFJGLL2E,长江城一号店,420000,湖北省,027,武汉市,420104,硚口区,购物服务;商场;普通商场,060102,古田四路47号江城壹号文化创意园1号楼老村,114.210892,30.598688,114.205415445,30.6011216767,,
B0FFIZ2Z6B,佳阳摩尔城,420000,湖北省,027,武汉市,420117,新洲区,购物服务;商场;普通商场,060102,阳逻经济开发区阳逻高新街,114.57377200000001,30.668127999999999,114.568690249,30.670726724400001,,
B0FFJ0V1NS,汉口北中环商贸新城,420000,湖北省,027,武汉市,420116,黄陂区,购物服务;商场;普通商场,060102,汉口北2号公馆西北侧约210米,114.313278,30.699715,114.307812515,30.702064145,,
B0FFJ1PMEE,GFP保税港(华东天地店),420000,湖北省,027,武汉市,420106,武昌区,购物服务;商场;免税品店,060103,中华路39号华东天地负一楼A8号,114.29786682128906,30.55030632019043,114.29244232177734,30.552743911743164,4.5,
B0FFJA4W5K,武汉广场S,420000,湖北省,027,武汉市,420103,江汉区,购物服务;商场;商场,060100,[],114.271545,30.579502999999999,114.266131667,30.5819620824,,
B0FFJA6PAP,关山漾,420000,湖北省,027,武汉市,420111,洪山区,购物服务;商场;普通商场,060102,关山大道473号(光谷天地沃尔玛北侧),114.41151428222656,30.47972297668457,114.40598297119141,30.482038497924805,4.5,
B0FFJZ7C6R,名流城市广场,420000,湖北省,027,武汉市,420116,黄陂区,购物服务;商场;普通商场,060102,巨龙大道名流人和天地底商,114.275733,30.709045,114.270306905,30.7114443702,3.5,
B0FFJCSOQK,舵落口广场,420000,湖北省,027,武汉市,420112,东西湖区,购物服务;家居建材市场;灯具瓷器市场|购物服务;商场;普通商场,060606|060102,吴家山舵落口大市场东西大道,114.15360260009766,30.612945556640625,114.14797210693359,30.615274429321289,,
B0FFJRX9LD,绿地城奥特莱斯,420000,湖北省,027,武汉市,420113,汉南区,购物服务;商场;商场,060100,[],114.063615,30.335756,114.057902532,30.338129888099999,3.5,
B0FFJC17E4,光谷时尚城若曼莎(南湖时尚城店),420000,湖北省,027,武汉市,420115,江夏区,购物服务;商场;商场,060100,南湖大道116号,114.386705,30.477646,114.381166553,30.479964948,,
B0FFJIWL3G,爱Q跨境购(泛悦mall店),420000,湖北省,027,武汉市,420103,江汉区,购物服务;商场;免税品店,060103,姑嫂树路12号泛悦mall商场2层,114.266305,30.627210,114.260888522,30.6296539268,3.5,
B0FFJ0GNNU,新崇光时尚广场A座,420000,湖北省,027,武汉市,420103,江汉区,购物服务;商场;普通商场,060102,解放大道与武展东路交叉口东南方向50米,114.274292,30.581849,114.268877507,30.5843048542,,
B0FFK668TN,世贸生活汇,420000,湖北省,027,武汉市,420115,江夏区,购物服务;商场;普通商场,060102,光谷大道70号现代光谷世贸中心,114.420885,30.471948,114.415366169,30.4742709174,3.5,
B0FFJOIXE2,幸福时代百货广场,420000,湖北省,027,武汉市,420117,新洲区,购物服务;商场;普通商场|购物服务;商场;购物中心,060102|060101,龙腾大街199号,114.800316,30.826576,114.795087384,30.8289624742,4.7,
B0FFK8UM4Y,纪念日百货(江汉路三店),420000,湖北省,027,武汉市,420102,江岸区,购物服务;商场;商场|购物服务;便民商店/便利店;便民商店/便利店,060100|060200,江汉路32号(森马旁),114.294628,30.578448999999999,114.28919799400001,30.580881421400001,3.5,
B0FFK7P6E1,天禧国际商业中心,420000,湖北省,027,武汉市,420111,洪山区,购物服务;商场;商场,060100,卓豹路特1号,114.39592742919922,30.505456924438477,114.39038848876953,30.507762908935547,,
B0FFJWXUK1,金禾,420000,湖北省,027,武汉市,420111,洪山区,购物服务;商场;普通商场,060102,徐家棚街街道徐东大街,114.364672,30.576457000000001,114.35914026099999,30.578767201000002,,
B0FFJCNYVY,新兰广场,420000,湖北省,027,武汉市,420114,蔡甸区,购物服务;商场;普通商场,060102,大沌公路新生活广场2层,114.052774,30.503208,114.047060188,30.5055645477,,
B0FFJYD7JL,泛海城市广场购物中心,420000,湖北省,027,武汉市,420103,江汉区,购物服务;商场;普通商场,060102,云彩路,114.254547,30.601261999999998,114.24913061300001,30.6037212566,,
B0FFJWGKER,泛悦汇,420000,湖北省,027,武汉市,420106,武昌区,购物服务;商场;普通商场,060102,粮道街办事处(湖北中医药大学昙华林校区东北),114.31658899999999,30.552064999999999,114.311131214,30.554469449700001,4.5,
B0FFK2AWM7,省外贸商场,420000,湖北省,027,武汉市,420102,江岸区,购物服务;商场;普通商场,060102,江汉北路4号附栋2楼,114.282104,30.587870,114.276684647,30.5903155328,3.0,
B0FFK1FUC2,人信汇购物中心(汉阳店),420000,湖北省,027,武汉市,420105,汉阳区,购物服务;商场;普通商场,060102,龙阳大道58附15(时代广场对面),114.206298828125,30.554290771484375,114.20081329345703,30.556734085083008,4.4,
B0FFK1NJ1Q,叶店商贸市场,420000,湖北省,027,武汉市,420116,黄陂区,购物服务;商场;普通商场,060102,[],114.262518,30.712903,114.257094092,30.7153100214,3.0,
B0FFK1U5IA,江南创意市集,420000,湖北省,027,武汉市,420106,武昌区,购物服务;商场;商场,060100,洪山广场地铁站内,114.336102,30.545418,114.330613227,30.5477876512,,
B0FFK1Y9BH,AEON MALL,420000,湖北省,027,武汉市,420102,江岸区,购物服务;商场;普通商场,060102,中一路15号附近,114.284003,30.631785000000001,114.27857846000001,30.634210618800001,,
B0FFK20HED,HALO HOUSE,420000,湖北省,027,武汉市,420114,蔡甸区,购物服务;商场;免税品店,060103,侏儒山街道西子山,113.873299,30.422586,113.867812525,30.4252741766,,
B0FFJWF1UT,MU专柜(大洋百货店),420000,湖北省,027,武汉市,420103,江汉区,购物服务;商场;普通商场,060102,中山大道756号大洋百货2层,114.28983599999999,30.577052999999999,114.28441110200001,30.579492820399999,,
B0FFJWPSQP,中商平价(首义购物广场店),420000,湖北省,027,武汉市,420106,武昌区,购物服务;商场;普通商场|购物服务;超级市场;超市,060102|060400,首义路95号,114.309739,30.536094,114.304292975,30.5385163765,,
B0FFK7OK64,世达中心,420000,湖北省,027,武汉市,420111,洪山区,购物服务;商场;普通商场|商务住宅;楼宇;商务写字楼,060102|120201,关山大道299号逸景华庭,114.412752,30.495058,114.407221344,30.497369204,,
B0FFK6NAQT,HFM,420000,湖北省,027,武汉市,420105,汉阳区,购物服务;商场;免税品店,060103,芳草路,114.214554,30.551397,114.209089488,30.5538528144,,
B0FFJ9PH2S,CREATIONS专柜,420000,湖北省,027,武汉市,420103,江汉区,购物服务;商场;免税品店,060103,万松街办事处解放大道690武汉国际广场B座,114.271427,30.579912,114.266013666,30.5823710245,,
B0FFK7LHTV,义乌商贸城,420000,湖北省,027,武汉市,420106,武昌区,购物服务;商场;普通商场,060102,中山路598号附近,114.308162,30.521429,114.302719525,30.5238589255,,
B0FFKETD5E,中环商贸城F30,420000,湖北省,027,武汉市,420102,江岸区,购物服务;商场;普通商场,060102,[],114.306818,30.663533,114.301365146,30.6659105194,,
B0FFK7Y6MO,世纪都会商场,420000,湖北省,027,武汉市,420103,江汉区,购物服务;商场;商场,060100,江汉四路33号,114.286589,30.583428,114.281166521,30.5858697504,,
B0FFJYQVCR,凯德广场(西城店),420000,湖北省,027,武汉市,420104,硚口区,购物服务;商场;普通商场|购物服务;商场;购物中心,060102|060101,解放大道18号(解放大道与古田二路交叉口),114.19422912597656,30.597635269165039,114.18871307373047,30.600044250488281,,16940.00
B0FFK9GJJQ,Ah cat,420000,湖北省,027,武汉市,420111,洪山区,购物服务;商场;免税品店,060103,华罗利广场2楼F13,114.396194,30.482656,114.390654724,30.4849691651,,
B0FFK7S56S,中商百货中商广场A区,420000,湖北省,027,武汉市,420106,武昌区,购物服务;商场;商场,060100,中南路特9号,114.331787109375,30.536710739135742,114.32630920410156,30.539091110229492,,
B0FFK9N7K1,老通城,420000,湖北省,027,武汉市,420111,洪山区,购物服务;商场;普通商场,060102,富安街(城市便捷酒店),114.315584,30.500779,114.310132208,30.5032018215,,
B0FFKASLAY,加州商城,420000,湖北省,027,武汉市,420111,洪山区,购物服务;商场;普通商场,060102,森林大道点睛学校旁,114.490338,30.509167,114.485013994,30.5116264346,,
B0FFJKQ9V1,武汉天街广场,420000,湖北省,027,武汉市,420103,江汉区,购物服务;商场;商场,060100,常青街街道今家敦特1号,114.258458,30.61223,114.25304205800001,30.614683854599999,,
B0FFJL8S2M,百尚购物中心,420000,湖北省,027,武汉市,420116,黄陂区,购物服务;商场;普通商场|购物服务;商场;购物中心,060102|060101,武湖街道梅教街汉口北大道口西南60米,114.408092,30.719541,114.402537559,30.721761257499999,3.5,
B0FFKDII2S,武汉大悦城,420000,湖北省,027,武汉市,420111,洪山区,购物服务;商场;购物中心,060101,高新大道与豹溪路交汇处,114.497668,30.488863,114.492373601,30.4913503468,,13000.00
B0FFKE1WDC,狮城名居生活广场,420000,湖北省,027,武汉市,420111,洪山区,购物服务;商场;商场,060100,珞狮路441号,114.350040,30.509440,114.344532825,30.5117959023,,
B0FFKFH5NW,黄陂区木兰玫瑰园旅游购物中心,420000,湖北省,027,武汉市,420116,黄陂区,购物服务;商场;购物中心,060101,[],114.440450,31.022397,114.434919969,31.0244786988,,
B0FFKEYY12,EONMALL,420000,湖北省,027,武汉市,420112,东西湖区,购物服务;商场;普通商场|购物服务;商场;购物中心,060102|060101,金银潭大道辅路,114.23777770996094,30.649896621704102,114.23233795166016,30.652334213256836,,
B0FFKG4J49,泛悦·城市奥特莱斯,420000,湖北省,027,武汉市,420111,洪山区,购物服务;商场;普通商场,060102,珞狮南路425号,114.350578,30.512427,114.345069791,30.514781061,4.5,
B0FFKDO4SE,金银潭购物中心,420000,湖北省,027,武汉市,420112,东西湖区,购物服务;商场;购物中心,060101,金银潭大道1号,114.238037109375,30.650535583496094,114.23260498046875,30.652973175048828,,
B0FFKU5T7T,新游唐人街,420000,湖北省,027,武汉市,420106,武昌区,购物服务;商场;商场,060100,徐东大街120号群星城1楼3号商铺,114.349987,30.584347000000001,114.34447338,30.586677375899999,3.5,
B0FFKFJ6BJ,文体汇,420000,湖北省,027,武汉市,420102,江岸区,购物服务;商场;购物中心,060101,兴业路59号,114.27319,30.629175,114.26777185,30.631612975,,
B0FFKDQP1T,汉鑫广场,420000,湖北省,027,武汉市,420116,黄陂区,购物服务;商场;普通商场,060102,汉口北大道汉北·轻轨1号西北侧约200米,114.331836,30.711486,114.326339711,30.7137943527,,
B0FFKT4B0Y,onion洋葱海外仓(江腾广场),420000,湖北省,027,武汉市,420105,汉阳区,购物服务;商场;免税品店,060103,马鹦路江腾广场A座1层背面,114.256233,30.537004,114.250822824,30.5394862557,3.5,
B0FFKCOBWI,金融港广场,420000,湖北省,027,武汉市,420115,江夏区,购物服务;商场;商场,060100,金融港四路与金融港路交叉口,114.429469,30.454355,114.42396566,30.4566912384,3.5,
B0FFKP7WYS,武商广场购物中心北区,420000,湖北省,027,武汉市,420103,江汉区,购物服务;商场;购物中心,060101,解放大道688号,114.26992300000001,30.580304000000002,114.264510019,30.5827640475,,
B0FFKC5A44,武汉K11购物艺术中心,420000,湖北省,027,武汉市,420104,硚口区,购物服务;商场;购物中心,060101,解放大道628号,114.265515,30.578995,114.26010272,30.5814585051,,
B0FFK54EID,汉口新界悦街,420000,湖北省,027,武汉市,420103,江汉区,购物服务;商场;普通商场,060102,航空路26号附近,114.261749,30.585433,114.256336009,30.5878960616,,
B0FFKDUBSS,武汉天地壹方北馆,420000,湖北省,027,武汉市,420102,江岸区,购物服务;商场;普通商场,060102,永和路8号,114.314103,30.616206,114.308643506,30.618590797,5.0,
B0FFKZUK5Z,德玛假日帝诗卡特全球优品,420000,湖北省,027,武汉市,420112,东西湖区,购物服务;商场;免税品店,060103,美联·德玛假日10栋1层商11,114.152332,30.656046,114.146690249,30.6583537152,,
B0FFKZWWEN,绿叶滠口新城轻轨站店,420000,湖北省,027,武汉市,420116,黄陂区,购物服务;商场;免税品店,060103,[],114.342025,30.683994,114.336514713,30.6862963377,,
B0FFL13JWZ,庭悦荟,420000,湖北省,027,武汉市,420112,东西湖区,购物服务;商场;商场,060100,环湖中路9号,114.224767,30.657789,114.219312944,30.6602134797,4.5,
B0FFKKBVM9,KAVON百联奥莱旗舰店,420000,湖北省,027,武汉市,420116,黄陂区,购物服务;商场;商场,060100,百联奥莱2期556-557、756-757,114.258176,30.732818,114.252749565,30.7352168819,,
B0FFKRJTWJ,vinnejuan,420000,湖北省,027,武汉市,420102,江岸区,购物服务;商场;免税品店,060103,安居西路193号德洛莉丝,114.310327,30.641787,114.304870967,30.6441679089,,
B0FFKS75C5,HORIZON壹方北馆,420000,湖北省,027,武汉市,420102,江岸区,购物服务;商场;商场,060100,火箭军指挥学院家属院,114.30766296386719,30.619422912597656,114.30221557617187,30.621818542480469,3.5,
B0FFKP7WYR,武商广场购物中心南区,420000,湖北省,027,武汉市,420103,江汉区,购物服务;商场;购物中心,060101,解放大道688号,114.270481,30.579753,114.265067934,30.582212828900001,,
B0FFKTZOCK,武汉环球广场,420000,湖北省,027,武汉市,420116,黄陂区,购物服务;商场;普通商场|购物服务;商场;购物中心,060102|060101,盘龙城巨龙大道39号(香奈天鹅湖旁),114.28957366943359,30.701396942138672,114.28414154052734,30.70378303527832,3.5,
B0FFL21K4T,群光广场二馆,420000,湖北省,027,武汉市,420111,洪山区,购物服务;商场;商场,060100,珞喻路6号,114.356771,30.525302,114.351253186,30.5276417496,,
B0FFKTSNSR,匠心汇(铁机路店),420000,湖北省,027,武汉市,420111,洪山区,购物服务;商场;商场,060100,欢乐大道300号,114.381292,30.590141,114.375745739,30.5924270371,3.5,
B0FFKAVPXO,印象城IN巷,420000,湖北省,027,武汉市,420107,青山区,购物服务;商场;普通商场,060102,工业一路与冶金大道交叉口西北方向80米,114.390988,30.631704,114.385435386,30.6339667128,,
B0FFL6MYSF,漫时区2号楼,420000,湖北省,027,武汉市,420106,武昌区,购物服务;商场;普通商场,060102,友谊大道305附2104号,114.323588,30.575010,114.318117063,30.577393017,,
B0FFL7VY8J,漂京一族,420000,湖北省,027,武汉市,420104,硚口区,购物服务;商场;免税品店,060103,吴家山一清路5附6号,114.154267,30.622424,114.148633571,30.6247495239,,
B0FFL8248I,购物广场(中百仓储店),420000,湖北省,027,武汉市,420105,汉阳区,购物服务;商场;普通商场,060102,五里墩街街道五里墩街办事处武汉市汉阳区麒麟路特一号中百仓储墨水湖购物广场,114.22638600000001,30.552567,114.220943792,30.555034731799999,,
B0FFKF7FZW,唔哈生活,420000,湖北省,027,武汉市,420105,汉阳区,购物服务;商场;普通商场,060102,芳草路97号,114.20552062988281,30.533218383789063,114.20003509521484,30.535669326782227,4.9,
B0FFL881LP,武汉绿地缤纷城,420000,湖北省,027,武汉市,420106,武昌区,购物服务;商场;商场,060100,临江大道606号,114.32222747802734,30.582109451293945,114.31675720214844,30.584493637084961,5.0,
B0FFKX25I1,帝斯曼国际中心,420000,湖北省,027,武汉市,420106,武昌区,购物服务;商场;普通商场|商务住宅;楼宇;商务写字楼,060102|120201,中南路街道武珞路358号,114.329201,30.535883,114.323724301,30.5382689976,,76860.00
B0FFL3568J,湘隆时代商业中心E区,420000,湖北省,027,武汉市,420114,蔡甸区,购物服务;商场;商场,060100,蔡甸区经济技术开发区车城北街(体育中心以南),114.166420,30.497226,114.160832202,30.4996180854,,
B0FFKZSO9S,阳光超市(四合庄路总店),420000,湖北省,027,武汉市,420117,新洲区,购物服务;商场;购物中心|购物服务;超级市场;超市,060101|060400,四合庄路与郭竹路交叉口东30米武汉农村商业银行斜对面,114.86668899999999,30.811983999999999,114.86158928099999,30.814493503800001,1.4,
B0FFL52640,百泰·邻里汇,420000,湖北省,027,武汉市,420104,硚口区,购物服务;商场;普通商场|商务住宅;住宅区;住宅小区,060102|120302,解放大道古田四路地铁站前五百米,114.214530,30.587027,114.209062355,30.5894698233,,
B0FFL4Z437,爱享家美景天城店,420000,湖北省,027,武汉市,420116,黄陂区,购物服务;商场;免税品店,060103,美景天城B2栋028商铺,114.288608,30.703270,114.28317336,30.705657342,,
B0FFLFB6B7,武汉自贸城3栋,420000,湖北省,027,武汉市,420112,东西湖区,购物服务;商场;普通商场,060102,[],114.051542,30.628305000000001,114.04581892900001,30.6306189829,,
B0FFKZNMZK,趣爱购,420000,湖北省,027,武汉市,420115,江夏区,购物服务;商场;免税品店,060103,复江道规划小区西侧,114.314560,30.357925,114.30912208,30.3603820567,,
B0FFL8ELI6,盛世商城,420000,湖北省,027,武汉市,420116,黄陂区,购物服务;商场;普通商场,060102,双风大道490号长江钢材五金批发隔壁,114.376193,30.875039,114.370624665,30.8771886378,,
B0FFL0Y4IY,中商百货中商广场B区(中商广场店),420000,湖北省,027,武汉市,420106,武昌区,购物服务;商场;商场,060100,中南路9号,114.331807,30.536377000000002,114.32632599599999,30.538757851900002,,
B0FFL7ASXX,百尚购物(铁机店),420000,湖北省,027,武汉市,420111,洪山区,购物服务;商场;购物中心|购物服务;超级市场;超市,060101|060400,罗家港路与北洋桥西路交汇处,114.368273,30.602767,114.362735252,30.6050622569,3.5,
B0FFL7BLY3,玖玖月晞,420000,湖北省,027,武汉市,420103,江汉区,购物服务;商场;免税品店,060103,发展大道299号,114.273396,30.620810,114.267978497,30.6232512794,,
B0FFL8JLTI,江夏休闲百惠购物广场,420000,湖北省,027,武汉市,420115,江夏区,购物服务;商场;商场,060100,兴新街158号,114.31396484375,30.348056793212891,114.30852508544922,30.350515365600586,,
B0FFLB12VG,华威生活超市,420000,湖北省,027,武汉市,420117,新洲区,购物服务;商场;普通商场|购物服务;便民商店/便利店;便民商店/便利店|购物服务;超级市场;超市,060102|060200|060400,华威购物广场1层,114.568325,30.663459,114.56323486700001,30.6660533704,5.0,
B0FFLF86NL,武汉自贸城13栋,420000,湖北省,027,武汉市,420112,东西湖区,购物服务;商场;普通商场,060102,[],114.050755,30.626963,114.04503327400001,30.629279137400001,,
B0FFKV2E2D,Rehome(建设大道店),420000,湖北省,027,武汉市,420103,江汉区,购物服务;商场;免税品店,060103,建设大道588号卓尔国际中心裙楼美克美家5层,114.271621,30.595556,114.266206263,30.598008897,3.0,
B0FFL9LEBL,松汇购物广场(邾城店),420000,湖北省,027,武汉市,420117,新洲区,购物服务;商场;购物中心,060101,邾城街红旗街23号,114.80039215087891,30.840253829956055,114.79515838623047,30.842632293701172,,
B0FFLDEJO0,御江阳逻万达广场(建设中),420000,湖北省,027,武汉市,420117,新洲区,购物服务;商场;购物中心,060101,柴泊大道思源实验学校东北600米,114.607332,30.684836000000001,114.602268235,30.687437708000001,3.5,
B0FFLMQIF3,PETAL百彤生活美学综合体,420000,湖北省,027,武汉市,420106,武昌区,购物服务;商场;商场,060100,和平大道旁,114.325855,30.581064,114.320379851,30.5834404334,,
B0FFLDMJPV,永旺梦乐城B馆,420000,湖北省,027,武汉市,420105,汉阳区,购物服务;商场;购物中心,060101,江城大道388号,114.20455,30.502617999999998,114.199067003,30.505075939200001,,
B0FFL7A28H,deyou,420000,湖北省,027,武汉市,420102,江岸区,购物服务;商场;免税品店,060103,海赋江城·天韵,114.306465,30.644787,114.301014267,30.647173423,,
B0FFLERAAV,红桥文化广场,420000,湖北省,027,武汉市,420102,江岸区,购物服务;商场;普通商场,060102,育欣路177号,114.284982,30.613465,114.279558269,30.6158970092,,
B0FFLDUT1Z,人信汇C座,420000,湖北省,027,武汉市,420105,汉阳区,购物服务;商场;商场,060100,龙阳大道,114.206012,30.554043,114.200528058,30.5564864443,,
B0FFL6RH1J,G2Mall,420000,湖北省,027,武汉市,420111,洪山区,购物服务;商场;普通商场|购物服务;商场;购物中心,060102|060101,珞喻路889号,114.39846038818359,30.507410049438477,114.39292144775391,30.509716033935547,,
B0FFLGE3VF,远洋心里PARK,420000,湖北省,027,武汉市,420103,江汉区,购物服务;商场;普通商场,060102,姑嫂树路与常青五路交汇处(新华下路中学旁),114.258973,30.630383,114.253555625,30.6328291801,,
B0FFLF707A,流行视窗(保利华都店),420000,湖北省,027,武汉市,420111,洪山区,购物服务;商场;普通商场,060102,卓刀泉路299号,114.383831,30.505395,114.378291047,30.5077080243,3.5,
B0FFLH1K30,星城购物中心,420000,湖北省,027,武汉市,420117,新洲区,购物服务;商场;购物中心,060101,阳逻街道中份村星城印象,114.580434,30.655324,114.57536192,30.6579346005,,
B0FFKZQ8UD,武汉摩尔城2期,420000,湖北省,027,武汉市,420105,汉阳区,购物服务;商场;商场,060100,龙阳湖东路,114.206035,30.559556,114.200550635,30.5619975386,,
B0FFLPDWKZ,星汇城,420000,湖北省,027,武汉市,420106,武昌区,购物服务;商场;商场,060100,[],114.336441,30.546012,114.330951628,30.5483808086,,
B0FFLI4V6D,华中科技大学万品汇广场,420000,湖北省,027,武汉市,420111,洪山区,购物服务;商场;普通商场,060102,珞瑜路1037号华中科技大学,114.415548,30.516621,114.410018459,30.5189271765,,
B0FFLGJVUZ,流行视窗广场,420000,湖北省,027,武汉市,420111,洪山区,购物服务;商场;普通商场,060102,,114.35360717773438,30.526098251342773,114.34809112548828,30.528444290161133,3.5,
B0FFLIJJLI,银座商城(多福路),420000,湖北省,027,武汉市,420104,硚口区,购物服务;商场;普通商场,060102,多福路5号附近,114.2767333984375,30.565820693969727,114.27131652832031,30.568279266357422,,
B0FFL95RBK,爱琴海购物公园,420000,湖北省,027,武汉市,420106,武昌区,购物服务;商场;普通商场,060102,武车村路,114.32598876953125,30.579940795898438,114.32051086425781,30.582317352294922,,
B0FFLIN96L,武汉江宸天街,420000,湖北省,027,武汉市,420103,江汉区,购物服务;商场;普通商场,060102,青年路518号,114.261446,30.606668,114.256031142,30.6091229262,5.0,
B0FFL3ETIP,SNHTLSMYHJGZ,420000,湖北省,027,武汉市,420106,武昌区,购物服务;商场;免税品店,060103,福客茂,114.340714,30.586487,114.335214281,30.5888332046,,
B0FFM6QLMU,atm潮流百货,420000,湖北省,027,武汉市,420102,江岸区,购物服务;商场;普通商场,060102,大智街办事处江汉一路58号潮流百货,114.290784,30.581665000000001,114.285357774,30.584101782600001,,
B0FFLFB74O,武汉自贸城39栋,420000,湖北省,027,武汉市,420112,东西湖区,购物服务;商场;普通商场,060102,[],114.049142,30.629038000000001,114.04342268400001,30.6313566028,,
B0FFLFBDTN,鸿达乐活城,420000,湖北省,027,武汉市,420112,东西湖区,购物服务;商场;普通商场,060102,临空港大道156号,114.138144,30.618620,114.132468694,30.6209209796,,
B0FFMD0EXW,威登保罗,420000,湖北省,027,武汉市,420105,汉阳区,购物服务;商场;免税品店,060103,汉正街华贸精品皮具箱包城2层4街2层,114.207805,30.553856,114.202325293,30.5563020717,,
B0FFLG68ZH,HORIZON壹方,420000,湖北省,027,武汉市,420102,江岸区,购物服务;商场;普通商场,060102,永清街街道,114.310525,30.609829000000001,114.30507144400001,30.612222883699999,,
B0FFM6HUMD,蓝江商城,420000,湖北省,027,武汉市,420106,武昌区,购物服务;商场;普通商场,060102,解放路402-410号第3楼,114.299194,30.544721,114.293761535,30.5471583771,3.0,
B0FFLLFZNA,地下商场,420000,湖北省,027,武汉市,420111,洪山区,购物服务;商场;普通商场,060102,关东街道雄楚大道金地中心城西区2号楼地下商场,114.39282989501953,30.497724533081055,114.38729095458984,30.500034332275391,,
B0FFLID8VM,广地冷链国际冻品交易中心,420000,湖北省,027,武汉市,420116,黄陂区,购物服务;商场;普通商场|购物服务;综合市场;农副产品市场,060102|060703,南环路12号,114.430398,30.712247,114.424873884,30.7144876815,,
B0FFLH38G7,青雅小铺,420000,湖北省,027,武汉市,420107,青山区,购物服务;商场;免税品店,060103,工人村路青雅居2号楼1层,114.421199,30.636725,114.415666228,30.6389907089,,
B0FFM2W1ZQ,云尚·武汉国际时尚中心-B馆,420000,湖北省,027,武汉市,420104,硚口区,购物服务;商场;普通商场,060102,中山大道多福路交汇处,114.27711486816406,30.571554183959961,114.27169799804687,30.574012756347656,,
B0FFM0UA8C,AI机器时代(武汉天河国际机场T3航站楼),420000,湖北省,027,武汉市,420116,黄陂区,购物服务;商场;免税品店,060103,机场大道武汉天河国际机场T3航站楼F2层,114.220553,30.768837,114.215081645,30.7712031028,,
B0FFMBDGYO,时时尚欧洲万利广场,420000,湖北省,027,武汉市,420111,洪山区,购物服务;商场;商场,060100,友谊大道与才华街交叉路口往南约50米(万利广场),114.346431,30.592362000000001,114.340921935,30.594695552899999,,
B0FFLONWQW,帅帅气气,420000,湖北省,027,武汉市,420115,江夏区,购物服务;商场;免税品店,060103,城关镇八里村四组153号,114.444746,30.465363,114.439275305,30.4677198281,,
B0FFLPESYE,汉商银座购物中心E座(汉商银座购物中心店),420000,湖北省,027,武汉市,420105,汉阳区,购物服务;商场;商场,060100,汉阳大道139号,114.268202,30.549348999999999,114.26279200899999,30.5518214198,,
B0FFMCDLTX,梦时代广场,420000,湖北省,027,武汉市,420106,武昌区,购物服务;商场;购物中心,060101,武珞路,114.340866,30.528946,114.335371044,30.5313122147,,
B0FFMCYR5E,21世纪购物中心,420000,湖北省,027,武汉市,420105,汉阳区,购物服务;商场;购物中心,060101,汉阳大道134号,114.26688385009766,30.549505233764648,114.261474609375,30.551979064941406,,
B0FFM4H41Z,东澜岸广场B馆,420000,湖北省,027,武汉市,420111,洪山区,购物服务;商场;普通商场,060102,黄家湖西路8号,114.26331,30.432677999999999,114.25791025700001,30.435186806400001,,
B0FFM6QLM9,金凯购物中心,420000,湖北省,027,武汉市,420114,蔡甸区,购物服务;商场;普通商场|购物服务;商场;购物中心,060102|060101,东风大道518号,114.16168,30.496953,114.156078564,30.4993363456,3.5,
B0FFM1VOYY,云尚·武汉国际时尚中心-A馆,420000,湖北省,027,武汉市,420104,硚口区,购物服务;商场;普通商场,060102,中山大道388号,114.278879,30.572092,114.27346308,30.5745469941,,
B0FFM6IBWB,老建二商场,420000,湖北省,027,武汉市,420107,青山区,购物服务;商场;普通商场,060102,建设二路,114.375496,30.625272,114.369950159,30.6275495615,,
B0G0DS8O8G,麦帮跨境优品体验店,420000,湖北省,027,武汉市,420112,东西湖区,购物服务;商场;免税品店,060103,高桥二路柏曼酒店(自贸城店)西南侧约220米,114.051581,30.627391,114.04585795,30.6297052874,,
B0FFM7WZEP,REACHING ROAD,420000,湖北省,027,武汉市,420106,武昌区,购物服务;商场;免税品店,060103,中南路14号银泰百货二楼,114.333531,30.537325,114.328047102,30.5397022512,,
B0FFLD0C10,雄楚k12,420000,湖北省,027,武汉市,420111,洪山区,购物服务;商场;普通商场,060102,,114.385762,30.502199,114.380221671,30.5045115725,3.0,
B0FFLLYOHG,万达广场,420000,湖北省,027,武汉市,420107,青山区,购物服务;商场;购物中心,060101,沿港路7-4号,114.40308380126953,30.636930465698242,114.39753723144531,30.639188766479492,,
B0FFMGX6VO,供新商贸城,420000,湖北省,027,武汉市,420115,江夏区,购物服务;商场;普通商场,060102,流芳路,114.45296478271484,30.429872512817383,114.44751739501953,30.432254791259766,,
B0FFLNQIMG,武商量贩(入口),420000,湖北省,027,武汉市,420107,青山区,购物服务;商场;普通商场,060102,祥丰路与友谊大道交叉口东南方向30米,114.377808,30.615057,114.3722615,30.6173363969,,
B0FFMCR2QO,G2 Mall-B座-华中支店,420000,湖北省,027,武汉市,420111,洪山区,购物服务;商场;商场,060100,珞喻路889号光谷国际广场B座24层,114.398657,30.507593,114.393116136,30.5098983868,,
B0G02R5VRU,云尚城市奥莱,420000,湖北省,027,武汉市,420111,洪山区,购物服务;商场;商场,060100,加州阳光美食街与珞雄路交叉路口西侧,114.40539699999999,30.503140999999999,114.399859646,30.505447628100001,,
B0G0C7X9MG,COLOUR ZONE PEOPLE,420000,湖北省,027,武汉市,420111,洪山区,购物服务;商场;免税品店,060103,虎泉街与楚韵路交叉口东约100米,114.394213,30.505468,114.388671471,30.5077751689,,
B0FFLHG94R,柒号广场,420000,湖北省,027,武汉市,420115,江夏区,购物服务;商场;普通商场,060102,大桥新区南车花园7栋,114.31767,30.409853,114.312222788,30.4122947873,,
B0G0754N5B,WAWA屋,420000,湖北省,027,武汉市,420102,江岸区,购物服务;商场;免税品店,060103,吉祥路福星惠誉榜YOUNG小区,114.327654,30.656418,114.322169362,30.6587600646,,
B0G0AZU1CH,星荟城,420000,湖北省,027,武汉市,420106,武昌区,购物服务;商场;商场,060100,中南路14号,114.33366394042969,30.537336349487305,114.32817840576172,30.539712905883789,3.3,
B0FFMDVR5G,Vivian海外购,420000,湖北省,027,武汉市,420112,东西湖区,购物服务;商场;免税品店,060103,金地格林春岸三栋,114.195177,30.629414,114.189659172,30.6318113953,,
B0FFMDI11U,厦华新汇广场,420000,湖北省,027,武汉市,420104,硚口区,购物服务;商场;普通商场,060102,汉西一路26号-中段附近,114.22292327880859,30.587533950805664,114.21747589111328,30.589984893798828,,
B0FFMHQCND,龙阳时代购物中心,420000,湖北省,027,武汉市,420105,汉阳区,购物服务;商场;购物中心,060101,龙阳大道49号,114.207398,30.551856,114.201917517,30.5543021929,3.5,
B0FFLPH6HA,日中天名店(多福路旗舰店),420000,湖北省,027,武汉市,420104,硚口区,购物服务;商场;商场,060100,多福路品牌服饰广场7楼7013-7025号,114.27700805664062,30.567422866821289,114.27159881591797,30.569881439208984,,
B0FFM0UG0U,cdf中国免税店(武汉天河国际机场T3航站楼),420000,湖北省,027,武汉市,420116,黄陂区,购物服务;商场;免税品店,060103,机场大道武汉天河国际机场T3航站楼F4层,114.219952,30.773482,114.214479094,30.7758450144,,
B0G055L5BA,武汉武商超市常青花园店,420000,湖北省,027,武汉市,420112,东西湖区,购物服务;商场;普通商场,060102,,114.239008,30.63949,114.233576033,30.6419318336,4.3,
B0G04R8JUC,武汉自贸城18栋,420000,湖北省,027,武汉市,420112,东西湖区,购物服务;商场;普通商场,060102,[],114.051149,30.628502999999998,114.04542652000001,30.630817692499999,,
B0G04S6F8A,摩尔城,420000,湖北省,027,武汉市,420105,汉阳区,购物服务;商场;普通商场,060102,,114.26086100000001,30.529917999999999,114.255452656,30.532401024599999,,
B0FFMGV85Z,安华酒店购物中心,420000,湖北省,027,武汉市,420106,武昌区,购物服务;商场;购物中心,060101,首义路街街道紫阳路281号,114.316149,30.533269000000001,114.310693525,30.535680619899999,,
B0FFM4PF0X,中百仓储庙山广信店,420000,湖北省,027,武汉市,420115,江夏区,购物服务;商场;普通商场,060102,庙山经济开发区江夏大道14号广信万汇城商业A区中百仓储超市,114.37326049804687,30.418062210083008,114.36773681640625,30.420408248901367,3.5,
B0G0774PNB,环球广场,420000,湖北省,027,武汉市,420116,黄陂区,购物服务;商场;普通商场,060102,[],114.28872200000001,30.701982999999998,114.28328736500001,30.704370809099998,,
B0G116D4E3,社区团购店,420000,湖北省,027,武汉市,420112,东西湖区,购物服务;商场;免税品店,060103,银杏街,114.257493,30.647064,114.252073775,30.649503511,,
B0G0VXNHMZ,邻里帮团购店,420000,湖北省,027,武汉市,420112,东西湖区,购物服务;商场;免税品店,060103,兴湖街闷家湖游园东北侧,114.140058,30.627844,114.13438656,30.6301439652,,
B0G0PPDRJO,德成广场,420000,湖北省,027,武汉市,420116,黄陂区,购物服务;商场;商场,060100,盘龙城经济开发区巨龙大道39号环球广场原德成广场,114.28968,30.701242000000001,114.28424452100001,30.703628865599999,,
B0G0DCALCT,悦心汇,420000,湖北省,027,武汉市,420111,洪山区,购物服务;商场;普通商场,060102,[],114.40373200000001,30.506088999999999,114.398193409,30.508394581699999,,
B0G2NH245Q,盘龙城万达广场,420000,湖北省,027,武汉市,420116,黄陂区,购物服务;商场;购物中心,060101,盘龙一路,114.30440521240234,30.695095062255859,114.29895782470703,30.69746208190918,,
B0G0Z5XLW9,PHOENIX MALL,420000,湖北省,027,武汉市,420113,汉南区,购物服务;商场;普通商场,060102,[],114.06501770019531,30.335384368896484,114.05930328369141,30.337757110595703,,
B0G0SZ0YND,百尚购物(德成·汉南广场店),420000,湖北省,027,武汉市,420113,汉南区,购物服务;商场;购物中心|购物服务;超级市场;超市,060101|060400,兴城大道与薇湖路交汇处东南侧,114.07100677490234,30.307163238525391,114.06529235839844,30.309530258178711,,
B0G0LAFS08,小璐の海外购,420000,湖北省,027,武汉市,420117,新洲区,购物服务;商场;免税品店,060103,骑云街与扒头街交叉口西约40米,114.602468,30.835104,114.597392562,30.8376290988,,
B0G04S89SQ,武汉自贸城4栋,420000,湖北省,027,武汉市,420112,东西湖区,购物服务;商场;普通商场,060102,[],114.05136899999999,30.62801,114.045646222,30.630324454699998,,
B0G0XZYNKY,铁甲商城,420000,湖北省,027,武汉市,420104,硚口区,购物服务;商场;普通商场,060102,[],114.173406,30.612403,114.167828403,30.6147679937,,
B0FFM1TSVX,云尚·武汉国际时尚中心-C馆,420000,湖北省,027,武汉市,420104,硚口区,购物服务;商场;商场,060100,中山大道388号,114.277815,30.570916,114.27239978,30.573372525900002,,
B0FFM21EI2,THEPLACE,420000,湖北省,027,武汉市,420104,硚口区,购物服务;商场;普通商场,060102,中山大道386-2号,114.27682495117187,30.571409225463867,114.27140808105469,30.57386589050293,,
B0G2MCYFZU,袋鼠玩趣城(视界专营店),420000,湖北省,027,武汉市,420103,江汉区,购物服务;商场;商场,060100,青年路108号,114.265669,30.583613,114.260256316,30.5860746789,,56.00
B0G0SG0I1G,鑫鑫海外购,420000,湖北省,027,武汉市,420114,蔡甸区,购物服务;商场;免税品店,060103,蟹湖大街武汉侏儒客运站西侧约240米,113.845559,30.440416,113.840003324,30.4430590005,,
B0G0U7PQXL,季佳·荟百步亭,420000,湖北省,027,武汉市,420102,江岸区,购物服务;商场;普通商场,060102,百步亭花园路185号北50米,114.315176,30.653073,114.309711656,30.655440149,4.0,
B0G144DY7C,suntime全球购,420000,湖北省,027,武汉市,420114,蔡甸区,购物服务;商场;免税品店,060103,江汉大学,114.162341,30.518764999999998,114.156739547,30.5211429525,,
B0G0XSY2E2,21世纪不动产(田园街店),420000,湖北省,027,武汉市,420112,东西湖区,购物服务;商场;购物中心,060101,田园街527-16号,114.138628,30.620768,114.132953678,30.6230687979,,
B0G31SXM1O,纤手秀,420000,湖北省,027,武汉市,420104,硚口区,购物服务;商场;商场,060100,中山大道1号越秀星汇维港购物中心B馆1层,114.25073999999999,30.570550000000001,114.24532424900001,30.573021360399999,,
B0G16R0XXS,季佳·荟雄楚,420000,湖北省,027,武汉市,420111,洪山区,购物服务;商场;商场,060100,雄楚大道890号,114.39022300000001,30.497696000000001,114.384682177,30.500007207399999,,
B0FFM6S68H,顶好风口,420000,湖北省,027,武汉市,420104,硚口区,购物服务;商场;普通商场,060102,顺道街武汉市第六十四中学顺道校区,114.273111,30.576201,114.267697442,30.5786600042,,
B0G3VUG3WK,漫时区1号楼,420000,湖北省,027,武汉市,420106,武昌区,购物服务;商场;普通商场,060102,[],114.323104,30.575296999999999,114.317633822,30.577680832999999,,
B0G3CP6I9N,铜锣湾,420000,湖北省,027,武汉市,420117,新洲区,购物服务;商场;商场,060100,新洲大街83附近,114.81013299999999,30.844142000000002,114.804921452,30.846535112000002,,
B0G0ABRGJZ,2acer专卖店,420000,湖北省,027,武汉市,420111,洪山区,购物服务;商场;免税品店,060103,洪山街道广埠屯资讯广场a座,114.360714,30.523885,114.355191376,30.5262190966,,
B0G23RDFY5,江夏楚神国际商贸城,420000,湖北省,027,武汉市,420115,江夏区,购物服务;商场;普通商场,060102,江夏大道123号,114.32919311523437,30.351638793945313,114.32373046875,30.354068756103516,,
B0G0PUETEG,武汉自贸城20栋,420000,湖北省,027,武汉市,420112,东西湖区,购物服务;商场;普通商场,060102,[],114.05086799999999,30.628025000000001,114.045146002,30.630340462900001,,
B0G3A668IM,裕亚银湖城商业街,420000,湖北省,027,武汉市,420112,东西湖区,购物服务;商场;商场,060100,金银湖路与金银湖南四街交叉路口北侧,114.20399475097656,30.630939483642578,114.19850158691406,30.633350372314453,3.5,
B0G3OS9KKN,外滩1号,420000,湖北省,027,武汉市,420103,江汉区,购物服务;商场;商场,060100,江汉路世纪江尚外滩1861,114.296436,30.575880,114.291004158,30.5783106342,,
B0G17AU5QK,WOLF旗舰店,420000,湖北省,027,武汉市,420105,汉阳区,购物服务;商场;免税品店,060103,永丰街办事处龙阳大道欧亚达国际广场2楼,114.195640,30.536161,114.190131512,30.5385942845,,
B0G3U743LW,团结八方电商城,420000,湖北省,027,武汉市,420112,东西湖区,购物服务;商场;普通商场,060102,团结街与新城十二路交叉路口往东南约70米,114.108794,30.607519,114.103064078,30.6097956209,,
B0G2DNM5J9,武汉万商白马,420000,湖北省,027,武汉市,420103,江汉区,购物服务;商场;普通商场,060102,[],114.285729,30.568194999999999,114.28030855999999,30.5706434849,,
B0G0RHEMTF,中环商贸新城,420000,湖北省,027,武汉市,420116,黄陂区,购物服务;商场;普通商场,060102,汉口北国际商品交易中心,114.31363677978516,30.7008056640625,114.30817413330078,30.703153610229492,,
B0G1NO5AVM,洋葱海外仓,420000,湖北省,027,武汉市,420114,蔡甸区,购物服务;商场;免税品店,060103,新福路74附4号,114.026753,30.575572,114.021084214,30.5779665067,,
B0G2M4V2BI,fiveps专柜(武汉国际广场店),420000,湖北省,027,武汉市,420103,江汉区,购物服务;商场;免税品店,060103,万松街街道解放大道688号武汉广场,114.271240,30.580010,114.265826711,30.5824691376,,
B0G33BT1VQ,吾行里拾光纪,420000,湖北省,027,武汉市,420107,青山区,购物服务;商场;商场,060100,和平大道1248(吾行里),114.374815,30.623019,114.369269854,30.625298232,,
B0G3DR3OAN,同学奥莱,420000,湖北省,027,武汉市,420111,洪山区,购物服务;商场;普通商场,060102,民族大道中南民族大学东北侧约70米,114.396574,30.489966,114.391034158,30.4922770056,,
B0G3AGARL3,兆富服饰店,420000,湖北省,027,武汉市,420106,武昌区,购物服务;商场;商场,060100,徐东大街18号销品茂三楼,114.343216,30.588208999999999,114.33771221400001,30.590549948100001,,
B0G39SO9DL,Myself进口商品直营店,420000,湖北省,027,武汉市,420102,江岸区,购物服务;商场;免税品店,060103,工农兵路74号,114.309674,30.623313,114.304220527,30.6257028948,,
B0G2TU4SHL,汉口城市广场购物中心3号楼,420000,湖北省,027,武汉市,420102,江岸区,购物服务;商场;普通商场,060102,[],114.308166,30.652863,114.302712152,30.655242915599999,,
B0G1DRH24G,季佳·里新荣,420000,湖北省,027,武汉市,420102,江岸区,购物服务;商场;普通商场,060102,后湖街街道后湖大道福星惠誉榜YOUNG小区,114.327447,30.656306,114.321962711,30.6586485106,,
B0GRAC4Z0W,佳佳乐购物广场,420000,湖北省,027,武汉市,420111,洪山区,购物服务;商场;商场,060100,铁机新居东南,114.365677,30.599623,114.36014216,30.6019229595,,
B0G3FZHOXO,RELX悦刻专卖店(新世界百货店),420000,湖北省,027,武汉市,420111,洪山区,购物服务;商场;商场,060100,珞喻路1号新世界百货街道口店2层2031,114.353939,30.527255,114.348424793,30.5295987206,,
B0G3A674R3,云龙百货劳保,420000,湖北省,027,武汉市,420114,蔡甸区,购物服务;商场;商场,060100,贸易二路18号,114.15128199999999,30.487938,114.14565220199999,30.490305341900001,,
B0G3DR2Q05,REXL(金地澜菲溪岸店),420000,湖北省,027,武汉市,420105,汉阳区,购物服务;商场;免税品店,060103,四新南路与梅林西路交叉路口西北侧,114.212572,30.515058,114.207106383,30.517523271,,
B0G27CGPYT,跨境购品源生活广场,420000,湖北省,027,武汉市,420115,江夏区,购物服务;商场;商场,060100,光谷三路777号-6号保税物流园6号楼,114.487799,30.433898,114.482471825,30.4363700521,4.5,
B0G3MR3UX8,M+,420000,湖北省,027,武汉市,420103,江汉区,购物服务;商场;普通商场,060102,江汉路187号,114.284911,30.583426,114.279489916,30.5858698665,3.0,
B0G1Z621II,铁建商城华中店,420000,湖北省,027,武汉市,420115,江夏区,购物服务;商场;商场,060100,[],114.391748,30.446531,114.386211541,30.448855174,,
B0G3RABT7J,维港全球购,420000,湖北省,027,武汉市,420116,黄陂区,购物服务;商场;免税品店,060103,百兴街20号,114.384463,30.873283,114.378890463,30.8754262422,,
B0GK2HI6IT,美食购物广场,420000,湖北省,027,武汉市,420103,江汉区,购物服务;商场;普通商场,060102,水塔街街道江汉一路欧利新天地美食休闲生活广场,114.29158200000001,30.579533999999999,114.28615515200001,30.581970456800001,,
B0G3FULNRE,汉正街龙腾第一大道,420000,湖北省,027,武汉市,420104,硚口区,购物服务;商场;普通商场,060102,多福路3号汉正街第一大道蓝宝石座1层,114.277667,30.563826,114.27225247,30.5662852434,,
B0G3JG2BGH,中百全球商品直销会员店,420000,湖北省,027,武汉市,420105,汉阳区,购物服务;商场;免税品店,060103,古田二路中百仓储二楼,114.266197,30.532478,114.260788682,30.5349574044,,
B0G3SOY3UY,悦心汇,420000,湖北省,027,武汉市,420111,洪山区,购物服务;商场;商场,060100,珞喻路光谷街世界城负一层,114.403713,30.506028000000001,114.398174404,30.508333599,5.0,
B0G276AXFH,Le Fame,420000,湖北省,027,武汉市,420103,江汉区,购物服务;商场;商场,060100,武汉国际广场三楼,114.268821,30.580472,114.263408228,30.582932791299999,3.5,
B0G3VBA8CJ,佩佩海外购,420000,湖北省,027,武汉市,420105,汉阳区,购物服务;商场;免税品店,060103,锦绣汉江,114.205399,30.570750,114.199912146,30.5731865828,,
B0G3VCEUXN,人信汇汉阳店3栋,420000,湖北省,027,武汉市,420105,汉阳区,购物服务;商场;普通商场,060102,[],114.20441,30.551472,114.19892243300001,30.553913983099999,,
B0G3M5ZDI7,岭森乐卡购物中心(青山分店),420000,湖北省,027,武汉市,420107,青山区,购物服务;商场;购物中心|购物服务;便民商店/便利店;便民商店/便利店,060101|060200,友谊大道939-1号东北50米,114.40496,30.620093000000001,114.39941214300001,30.622357916999999,,
B0GD9MJWC4,元亨·朴方,420000,湖北省,027,武汉市,420106,武昌区,购物服务;商场;普通商场|生活服务;美容美发店;美容美发店,060102|071100,万达广场12-13号28室,114.309684,30.564363,114.304235613,30.5667757116,,
B0GK6YR824,楠山有约自力坊,420000,湖北省,027,武汉市,420105,汉阳区,购物服务;商场;商场,060100,自力一街21号西南90米,114.267762,30.539952,114.26235288,30.5424279139,,
B0GK7R3A1J,晨都国采店,420000,湖北省,027,武汉市,420111,洪山区,购物服务;商场;免税品店,060103,光谷六路国采光立方小区7-7,114.512124,30.491965,114.506884083,30.4944946996,,
B0GK1YWG3S,泛悦北都城市广场RELX悦刻,420000,湖北省,027,武汉市,420103,江汉区,购物服务;商场;商场,060100,姑嫂树路12号泛悦Mall·北都店F1,114.26654600000001,30.627144000000001,114.261129509,30.6295878032,,
B0G3MR26MZ,金帆百货商行,420000,湖北省,027,武汉市,420104,硚口区,购物服务;商场;商场,060100,利济南路35号,114.272671,30.564789999999999,114.26725857700001,30.5672535464,,
B0GKKCYFJD,维佳·体验城,420000,湖北省,027,武汉市,420111,洪山区,购物服务;商场;普通商场,060102,丁字桥南路525(佰港城隔壁),114.326208,30.501486,114.320739169,30.5038885317,4.0,
B0G3U93YPG,嘉园·印象里,420000,湖北省,027,武汉市,420111,洪山区,购物服务;商场;普通商场,060102,[],114.445691,30.499552999999999,114.44021977,30.501902074299998,,
B0GKB4E1C5,图乐尔乐购物中心,420000,湖北省,027,武汉市,420112,东西湖区,购物服务;商场;购物中心,060101,将军路121附近,114.257059,30.650198,114.251639365,30.652636265799998,,
B0GKJ7YNMV,泛悦南国中心二期-购物中心,420000,湖北省,027,武汉市,420103,江汉区,购物服务;商场;购物中心,060101,江汉大道669号,114.283006,30.585705,114.277586185,30.5881503052,,
B0GKSHL1MI,UAO,420000,湖北省,027,武汉市,420102,江岸区,购物服务;商场;免税品店,060103,汉黄路32号良友红坊文化艺术社区A7栋,114.330591,30.668546,114.325100496,30.6708769942,,
B0GRGKODCW,食武巷(绿地缤纷城店),420000,湖北省,027,武汉市,420102,江岸区,购物服务;商场;商场,060100,沿江大道绿地缤纷城,114.344505,30.652510,114.338993616,30.654822115,,
B0GRJRPR0W,积分店(光谷青年城店),420000,湖北省,027,武汉市,420111,洪山区,购物服务;商场;免税品店,060103,新竹路青年城三栋,114.404311,30.492417,114.398773927,30.4947266552,,
B0H2HOKQTC,青年汇广场,420000,湖北省,027,武汉市,420115,江夏区,购物服务;商场;普通商场,060102,光谷大道光谷青年汇5栋2期一层2号S-104,114.423735,30.441157,114.418223074,30.4434902383,,
B0H2HOLXNC,ICC太和里商业广场,420000,湖北省,027,武汉市,420103,江汉区,购物服务;商场;普通商场,060102,万松街街道青年路59号,114.262043,30.590339,114.256629621,30.5928000526,,
B0GUX1BO8R,万达广场,420000,湖北省,027,武汉市,420111,洪山区,购物服务;商场;购物中心,060101,书城路26号,114.339544,30.505047000000001,114.334053211,30.507423137300002,,
B0GU4RUWU8,新崇光时尚广场,420000,湖北省,027,武汉市,420116,黄陂区,购物服务;商场;普通商场,060102,湖北省武汉市黄陂区横店大道67号,114.292192,30.798597999999998,114.28674555000001,30.800931237499999,,
B0H3YC86H1,楚天商业城,420000,湖北省,027,武汉市,420117,新洲区,购物服务;商场;普通商场,060102,[],114.804527,30.844217,114.799304617,30.8466004376,,
B0GK5N6DHS,保利悦荟,420000,湖北省,027,武汉市,420111,洪山区,购物服务;商场;商场,060100,和平街道铁机路(保利城二期),114.359526,30.595097,114.353998607,30.5974076649,3.5,
B0GU3LLH7L,FLOATING,420000,湖北省,027,武汉市,420106,武昌区,购物服务;商场;免税品店,060103,和平大道金地·国际花园,114.310271,30.562350,114.304821926,30.5647623837,,
B0G33DVNLG,海外购,420000,湖北省,027,武汉市,420105,汉阳区,购物服务;商场;免税品店,060103,梅林二街观澜国际南侧约200米,114.220841,30.522201,114.215391565,30.5246736083,,
B0GKYYFT6P,红坊里店,420000,湖北省,027,武汉市,420107,青山区,购物服务;商场;普通商场,060102,新奥风尚建设四路,114.384749,30.627316,114.379198046,30.6295843581,,
B0H12RAYF4,武汉天地壹方南馆,420000,湖北省,027,武汉市,420102,江岸区,购物服务;商场;商场,060100,中山大道1515号(武汉天地对面),114.309525,30.609040,114.304072981,30.6114359887,,
B0H14HTFN0,Oval Space 一奥荟·武汉启城购物公园(建设中),420000,湖北省,027,武汉市,420111,洪山区,购物服务;商场;普通商场,060102,烽胜路60号,114.292508,30.469272,114.287089681,30.4717423807,,
B0G3VBB2ZP,7-PE,420000,湖北省,027,武汉市,420117,新洲区,购物服务;商场;商场,060100,幸福时代百货广场,114.800128,30.826288,114.794899072,30.828674336,,
B0GD3Z1LDN,万科未来中心,420000,湖北省,027,武汉市,420105,汉阳区,购物服务;商场;商场,060100,汉阳大道五里墩地铁站C出口,114.244197,30.553969,114.238777705,30.5564457468,,
B0GUCH66TK,艺术购物中心,420000,湖北省,027,武汉市,420111,洪山区,购物服务;商场;购物中心,060101,关山街道关山大道光谷新世界k11艺术购物中心,114.412794,30.493965,114.407263481,30.4962765407,,
B0H3TLP357,POP MART(凯德1818店),420000,湖北省,027,武汉市,420106,武昌区,购物服务;商场;普通商场,060102,中北路31号凯德1818B1,114.340107,30.553213,114.334611135,30.555572459,,
B0H1XC4GET,Ogonblick北欧时刻武汉K11店,420000,湖北省,027,武汉市,420104,硚口区,购物服务;商场;商场,060100,解放大道628号武汉K11艺术购物中心I馆3层,114.264015,30.578633,114.258602762,30.5810974909,,
B0H69RKUIB,星空微尘数字商城,420000,湖北省,027,武汉市,420115,江夏区,购物服务;商场;商场,060100,光谷大道303号光谷芯中心C3-13幢慧泽股份1-3层,114.452555,30.419066,114.447109445,30.4214493809,,
B0HBY7GPHV,汉商武展购物中心,420000,湖北省,027,武汉市,420103,江汉区,购物服务;商场;普通商场,060102,解放大道696号,114.273564,30.581626,114.26814981,30.5840825855,5.0,
B0H1XR6G3K,季佳·荟,420000,湖北省,027,武汉市,420103,江汉区,购物服务;商场;普通商场,060102,[],114.265654,30.625622,114.260237698,30.628066988,,
B0GK2ZHPRN,季佳荟·新华家园,420000,湖北省,027,武汉市,420103,江汉区,购物服务;商场;普通商场,060102,红旗渠路与姑嫂树路交叉路口南侧,114.264987,30.626387,114.259570653,30.6288320605,,
B0GKR481PM,武汉国际广场C(武汉国际广场店),420000,湖北省,027,武汉市,420103,江汉区,购物服务;商场;商场,060100,解放大道690号,114.27152599999999,30.578927,114.266112722,30.581386312900001,,
B0HB1SFQNV,人信汇地下商城,420000,湖北省,027,武汉市,420105,汉阳区,购物服务;商场;普通商场,060102,龙阳街道龙阳大道龙阳村地铁站,114.205192,30.552134,114.199706263,30.5545769108,3.5,
B0HBOCLCOA,AVENUE 11,420000,湖北省,027,武汉市,420104,硚口区,购物服务;商场;购物中心,060101,解放大道628号,114.266506,30.578234,114.261093725,30.5806971821,,
B0H6L1K5TN,万达广场,420000,湖北省,027,武汉市,420106,武昌区,购物服务;商场;购物中心,060101,才茂街1号,114.34735107421875,30.603639602661133,114.34183502197266,30.605966567993164,,
B0HBOHLHOB,CPARK,420000,湖北省,027,武汉市,420105,汉阳区,购物服务;商场;普通商场|商务住宅;楼宇;商务写字楼,060102|120201,龙阳大道汉阳人信汇时代中心,114.206233,30.553976,114.200749589,30.5564197878,,
B0HB3L947I,泛海城市广场一期购物中心,420000,湖北省,027,武汉市,420103,江汉区,购物服务;商场;购物中心,060101,云彩路198号,114.256132,30.602937,114.250716114,30.6053952509,,
B0HBNSWRI3,唯它VITAVP,420000,湖北省,027,武汉市,420112,东西湖区,购物服务;商场;免税品店,060103,兆丰花园107国道门面楼47号,114.140476,30.618071,114.134806464,30.6203756409,,
B0HGN4LBKO,武汉阳逻万达广场(建设中),420000,湖北省,027,武汉市,420117,新洲区,购物服务;商场;购物中心,060101,阳逻街柴泊大道19号,114.603622,30.690660,114.598558505,30.69326022,,9500.00
B0H63P6DW8,嘉园印象里,420000,湖北省,027,武汉市,420111,洪山区,购物服务;商场;商场,060100,关山街道光谷一路万科嘉园内,114.445720,30.499560,114.440248844,30.5019091267,4.0,
B0HBNKVBBW,印象城购物中心(民生路店),420000,湖北省,027,武汉市,420103,江汉区,购物服务;商场;购物中心,060101,民生路176号附近,114.29065900000001,30.576778000000001,114.28523332,30.5792167828,,
B0H2J9W74C,myself进口商品直营店,420000,湖北省,027,武汉市,420103,江汉区,购物服务;商场;免税品店,060103,金色雅园金涛苑,114.247688,30.626429,114.242265354,30.6288784247,,
B0HB27XLYY,有家,420000,湖北省,027,武汉市,420111,洪山区,购物服务;商场;免税品店,060103,[],114.349392,30.508470,114.343885849,30.5108273193,,
B0HA6A81JT,泛悦·悦享馆,420000,湖北省,027,武汉市,420111,洪山区,购物服务;商场;普通商场,060102,[],114.350666,30.512667,114.345157644,30.5150208361,,
B0HG0UYNSR,汉口北国际商品交易中心二号仓储中心六区,420000,湖北省,027,武汉市,420116,黄陂区,购物服务;商场;普通商场,060102,汉口北大道,114.323997,30.700768,114.318514468,30.7030965365,,
B0HB3M6DN2,实体互联网一站式购物,420000,湖北省,027,武汉市,420116,黄陂区,购物服务;商场;免税品店,060103,汉口北大道与滨湖侧路交叉路口往北约150米,114.328210,30.709098,114.322719861,30.7114144519,,
B0HBY7JQCD,汉商武展购物中心,420000,湖北省,027,武汉市,420103,江汉区,购物服务;商场;普通商场,060102,[],114.27368927001953,30.58173942565918,114.26828002929687,30.584196090698242,,
B0HG47SLEM,龙湖武汉白沙天街B馆(建设中),420000,湖北省,027,武汉市,420111,洪山区,购物服务;商场;商场,060100,白沙三路与光霞路交汇口,114.287844,30.478318,114.282429457,30.4807923909,,
B0HBO7M60K,长嘉百货批发城,420000,湖北省,027,武汉市,420104,硚口区,购物服务;商场;普通商场,060102,韩家墩街道长嘉路9号西北60米,114.212206,30.594666,114.206732697,30.5971029641,3.5,
B0HD3AOEK8,唐蔡路台北商场楼,420000,湖北省,027,武汉市,420103,江汉区,购物服务;商场;普通商场,060102,蔡家田小区38栋底层,114.275043,30.617966,114.269625081,30.6204069682,3.0,
B0HG0CZI91,宜优品购物广场(仓集店),420000,湖北省,027,武汉市,420117,新洲区,购物服务;商场;普通商场,060102,骑云街文腾新佳苑南侧约160米,114.603797,30.834718,114.598721481,30.8372429985,,
B0HG07052R,新生活摩尔城,420000,湖北省,027,武汉市,420102,江岸区,购物服务;商场;普通商场|商务住宅;楼宇;商住两用楼宇|商务住宅;楼宇;商务写字楼|购物服务;商场;购物中心,060102|120203|120201|060101,后湖大道322号,114.322368,30.655414,114.316892056,30.6577666039,,12080.00
B0HR410XXE,1828武汉新天地(中山大道店),420000,湖北省,027,武汉市,420103,江汉区,购物服务;商场;商场,060100,中山大道555号1828武汉新天地B1层,114.279827,30.573364,114.274410401,30.5758175154,,
B0HGKYHUI2,华堂商场,420000,湖北省,027,武汉市,420111,洪山区,购物服务;商场;普通商场,060102,民族大道10号,114.399544,30.504807,114.394003662,30.5071131013,,
B0HGT9B8TF,武汉K11购物艺术中心-二馆,420000,湖北省,027,武汉市,420104,硚口区,购物服务;商场;商场,060100,解放大道630号,114.266466,30.579163,114.261053648,30.5816258608,,
B0HRVL3VQC,家居建材购物中心,420000,湖北省,027,武汉市,420105,汉阳区,购物服务;商场;购物中心,060101,四新南路华发未来荟西南侧约80米,114.215920,30.512153,114.210461726,30.5146232932,,
B0HDH7EXTO,华贸商城,420000,湖北省,027,武汉市,420104,硚口区,购物服务;商场;普通商场|商务住宅;楼宇;商住两用楼宇,060102|120203,汉正街658号,114.275174,30.566177,114.269760484,30.5686378214,,16037.00
B0HDM5VJ6U,云尚·武汉国际时尚中心,420000,湖北省,027,武汉市,420104,硚口区,购物服务;商场;商场,060100,中山大道与民意四路交叉路口往南约50米,114.279415,30.572479,114.273998729,30.5749332837,,
B0HRGUA66E,丰源购物中心,420000,湖北省,027,武汉市,420113,汉南区,购物服务;商场;普通商场,060102,汪杨郭路与朱家山路交叉口附近,114.081454,30.316724,114.075733419,30.3190799084,,
B0HDVNX1EX,武汉国际广场购物中心C座,420000,湖北省,027,武汉市,420103,江汉区,购物服务;商场;商场,060100,解放大道690号,114.271481,30.578413,114.26606778,30.5808725409,,
B0HRKCD2O9,武商MALL·中心广场,420000,湖北省,027,武汉市,420103,江汉区,购物服务;商场;购物中心,060101,武商路,114.271022,30.579661,114.265608801,30.5821204412,,
B0HBOLNKVN,精品商场,420000,湖北省,027,武汉市,420106,武昌区,购物服务;商场;商场,060100,首义路街街道首义路楚民大酒店精品商场,114.309699,30.535432,114.30425309,30.537854667,,
B0HUGDQPR8,中南天紫广场a馆,420000,湖北省,027,武汉市,420106,武昌区,购物服务;商场;普通商场|商务住宅;商务住宅相关;商务住宅相关,060102|120000,中南一路3号,114.33213,30.537819,114.326648344,30.5401987562,3.5,
B0HG0UYFKF,汉口北国际商品交易中心二号仓储中心五区,420000,湖北省,027,武汉市,420116,黄陂区,购物服务;商场;普通商场,060102,[],114.323624,30.700224,114.318142121,30.702553509,,
B0HUBCFA8Y,HORIZON壹方,420000,湖北省,027,武汉市,420102,江岸区,购物服务;商场;商场,060100,中山大道常阳·永清城东侧约200米,114.310523,30.609826,114.305069447,30.6122198885,,
B0HGYZWLIY,龙湖武汉滨江天街(建设中),420000,湖北省,027,武汉市,420106,武昌区,购物服务;商场;购物中心,060101,和平大道与秦园路交汇口,114.331387,30.589480,114.325902073,30.5918426573,,
B0HB3A7GEF,江汉区循礼门m商场,420000,湖北省,027,武汉市,420103,江汉区,购物服务;商场;商场,060100,江汉北路循礼门饭店,114.286108,30.583709,114.280685906,30.5861512589,,
